id,district,street,name,beds,since,address,phone,zipcode,type,legal_person
1,宝山区,大场镇,上海信养养老服务有限公司大场分公司,247,2022-01-11,上海市场中路4098弄8号,021-56555322,,民建民营,魏松
2,宝山区,大场镇,上海大场长乐养老院,326,2015-07-22,上海市宝山区大场镇少年村路218号,66610336,200436,民建民营,刘洪法
3,宝山区,大场镇,上海宝山区大场欢喜家养老院,948,2024-08-20,上海市真大路599号,021-31028966,,公建民营,韩希云
4,宝山区,大场镇,上海宝山区大场镇敬老院,140,1998-12-23,上海市环镇北路600弄158号,021-56517301,200436,公建公营,范志强
5,宝山区,大场镇,上海宝山区大场镇祁连敬老院,96,1994-10-19,上海市锦秋路2088号,021-56131503,200436,公建公营,范志强
6,宝山区,大场镇,上海宝山区德照敬老院,171,2006-03-15,上海市红光村沪太路3651号,021-51609188,200444,民建民营,许小凤
7,宝山区,大场镇,上海宝山区秋晖养老院,144,2019-03-01,上海市祁连社区,56696128,200444,公建民营,潘马发
8,宝山区,大场镇,上海宝山区金悦养老院,288,2016-05-02,上海市宝山区大场镇祁真路485号,13601786946,200436,公建民营,秦雨胜
9,宝山区,大场镇,上海星堡老年服务有限公司,1382,2014-04-23,上海市环镇南路858弄5号楼、8-2号楼,31001500*80101,200436,民建民营,陈育骏
10,宝山区,大场镇,上海星辰家养老服务有限公司,330,2023-12-06,上海市祁康路516号,021-66951555,,民建民营,刘毅达
11,宝山区,高境镇,上海宝山区高境镇养老院,430,2012-08-08,上海市何家湾路99弄9号,55040277,200439,公建民营,秦雨胜
12,宝山区,顾村镇,上海宝山区保龙养老院,395,2017-10-13,上海市宝山区顾村镇宝安公路2365号,56752222,201801,民建民营,黄龙
13,宝山区,顾村镇,上海宝山区康泰养老院,213,2018-10-10,上海市宝山区顾村镇顾陈路430号,66780009,201906,民建民营,李茜
14,宝山区,顾村镇,上海宝山区顾村镇敬老院,203,2014-03-12,上海市沪太路5129弄10号,021-56020482,201907,公建公营,李珍
15,宝山区,顾村镇,上海宝山区顾村镇馨佳园养老院,131,2017-05-16,上海市潘广路1645号,36210632,201906,公建民营,刘燕芳
16,宝山区,顾村镇,上海宝山沣德养老院,313,2019-07-05,上海市湄星路1818号11幢,66680189,201900,民建民营,郑振亮
17,宝山区,顾村镇,上海顾村和平养老院,188,2016-03-09,上海市陆翔路688弄1-33号,66028550,201907,民建民营,丁洁雯
18,宝山区,顾村镇,欧葆庭（上海）养老服务有限公司,385,2020-08-11,上海市沪太路4858号,56021699,,民建民营,王婷婷
19,宝山区,罗店镇,上海宝山罗店孝乐汇美兰金湖养老院,137,2023-02-14,上海市罗南路39号,66860097,201908,公建民营,韩希云
20,宝山区,罗店镇,上海宝山罗福养老院,215,2005-08-23,上海市东西巷街,64693728,201908,民建民营,顾超
21,宝山区,罗店镇,上海宝山美兰金苑养老院,850,2009-12-23,上海市宝山区罗店镇沪太路6273弄50号,66010806,201908,公建公营,陈璐
22,宝山区,罗店镇,上海金罗敬老院,120,2003-09-18,上海市罗东路1176号东首,15901604656,201908,民建民营,严云龙
23,宝山区,罗店镇,上海青汐养老服务有限公司,174,2021-04-26,上海市宝山工业园区 上海市宝山区城银路505号101-104、3层、5层、6层、507号1-2层、509号1-2层、511号1-2层、513号1-2层,56670229,,民建民营,宋斐
24,宝山区,罗泾镇,上海宝山区罗泾镇敬老院,110,1984-02-20,上海市宝山区罗泾镇集宁路179号,56870784,200949,公建公营,杨海英
25,宝山区,罗泾镇,上海怡景养老院,281,2017-09-30,上海市宝山区罗泾镇潘沪路78号,66877829,200949,公建民营,潘程
26,宝山区,庙行镇,上海宝山区庙行镇敬老院,140,2012-12-10,上海市敬老院,56661706,200443,公建公营,冯禕磊
27,宝山区,庙行镇,上海宝山庙行孝乐汇悦馨养老院,417,2020-12-09,上海市南蕴藻路999号,17321215815,200443,公建民营,朱利
28,宝山区,庙行镇,上海颐和嘉宁养护院有限公司,269,2023-01-17,上海市南蕰藻路678号,4008780388,,民建民营,MEI XUEYAN
29,宝山区,淞南镇,上海宝山区淞南镇养老院,312,2018-09-10,上海市宝山区淞南镇长江路860弄58号,56121758,200439,公建民营,顾张燕
30,宝山区,淞南镇,上海美庭阳光养老院,284,2016-02-01,上海市宝山区淞南镇长江南路970号,36589188,200439,民建民营,周知
31,宝山区,吴淞街道,上海同泰敬老院,245,2016-12-06,上海市同泰北路183号,56175183,200940,民建民营,苗成
32,宝山区,吴淞街道,上海宝山区新宏养老院,128,2022-07-01,上海市淞宝路96号7幢、5幢三层,56167148,,民建民营,陈丽娟
33,宝山区,吴淞街道,上海宝山区海滨新村街道敬老院,160,2004-08-19,上海市宝山区吴淞街道永清二村122号,56566635,200940,公建民营,张红阳
34,宝山区,吴淞街道,上海宝山区逸仙养老院,421,2017-04-10,上海市宝山区塘后支路19-21号,021-56562778,200940,民建民营,冯强
35,宝山区,杨行镇,上海宝山勤丰家乐养老院,142,2009-12-03,上海市宝山区杨行镇盘古路715弄9号,66785088 66781068,201900,民建民营,刘挺浩
36,宝山区,杨行镇,上海宝山区百姓敬老院,396,2007-09-21,上海市杨宗路308号,33852677,201901,民建民营,金清浩
37,宝山区,杨行镇,上海宝山区益康敬老院,220,2007-04-27,上海市泰和路1155号,33795030,201901,民建民营,秦琦
38,宝山区,杨行镇,上海宝山杨行镇金秋晨曦老年公寓,1350,2001-04-18,上海市宝山区杨行镇盘古路1911号,56780662,201901,公建公营,钱佳
39,宝山区,杨行镇,上海市第三社会福利院,600,1979-04-11,上海市漠河路655号,36212361,201999,公建公营,计琼
40,宝山区,友谊路街道,上海宝山友谊幸福里养老院,215,2021-10-15,上海市宝林八村128号,61676320，13122818633,,公建民营,潘马发
41,宝山区,友谊路街道,上海宝康老年公寓,270,2003-03-21,上海市宝山区友谊路街道宝山十村106号,56120350*7103,201900,公建民营,陆明
42,宝山区,月浦镇,上海宝山区月浦乐业养老院,65,2004-01-14,上海市春雷路332弄2号,56932568,200941,民建民营,王凤莉
43,宝山区,月浦镇,上海宝山区月浦恬逸养老院,466,2020-03-16,上海市月富路318号,021-66933026,200941,公建民营,邢瑞鑫
44,宝山区,月浦镇,上海宝山区月浦镇怡康敬老院,58,2006-01-18,上海市宝山区月浦镇盛桥一村28号,56159598,200942,民建民营,王凤莉
45,宝山区,月浦镇,上海宝山区金色晚年敬老院,503,2006-07-24,上海市宝山区月浦镇段泾村陆家宅50号,021-56935189,200941,民建民营,潘马发
46,宝山区,张庙街道,上海宝山区新康安养院,190,2005-10-10,上海市呼玛四村27号,66229687,200431,民建民营,管华凤
47,宝山区,张庙街道,上海宝山区通河新村街道敬老院,72,1999-11-19,上海市宝山区张庙街道通河二村40号,56749563,200431,公建民营,卞桂芳
48,宝山区,张庙街道,上海张庙养老院,154,2016-10-10,上海市宝山区张庙街道长江西路1181号,56121365,200431,公建民营,沈超
49,崇明区,,上海崇明横沙敬老院,208,2018-10-19,上海市崇明区横沙乡富民沙路108弄25号,56890845,201914,公建民营,李菊花
50,崇明区,堡镇,上海崇明区城桥第三敬老院,186,2001-06-06,上海市崇明区城桥镇长侯路25号,59691322,202155,公建公营,周忠惠
51,崇明区,堡镇,上海崇明区堡镇敬老院,170,1984-06-08,上海市大通路555号,59417633,202157,公建民营,张凤侠
52,崇明区,堡镇,上海市崇明逸达敬老院,41,2015-08-10,上海市桃源村568号,021-59427190,202157,民建民营,宋李花
53,崇明区,堡镇,上海海科第三福利院,206,2016-11-10,上海市崇明区堡镇堡渔村890号,59410600,202157,民建民营,葛向东
54,崇明区,堡镇,上海海阳清怡养护院有限公司,400,2018-05-04,上海市堡镇中路223号,021-59395002,202157,民建民营,曹盘美
55,崇明区,陈家镇,上海崇明区陈家镇敬老院,156,1958-09-10,上海市崇明区陈家镇铁塔村6队01,59430587,202162,公建公营,汤金飞
56,崇明区,陈家镇,上海崇明太保家园养老服务有限公司,1050,2023-12-29,上海崇明区东滩大道99号（不含19号、20号楼）、颐湖路88号,66909999,,民建民营,杨颖
57,崇明区,陈家镇,上海崇明德云养老院,100,2012-02-02,上海市崇明区陈家镇新出港路1188号,59406366,202162,民建民营,董燕
58,崇明区,陈家镇,上海崇明蘭馨福利院,300,2007-04-10,上海市崇明区陈家镇锦陈路668号,59402078,202162,民建民营,黄菊兰
59,崇明区,陈家镇,上海崇明陈家镇东滩养老院,420,,上海市安寿路199号,,,,时燕
60,崇明区,城桥镇,上海崇明区城桥第二敬老院,70,2016-04-06,上海市崇明区城桥镇团城公路6380号,59691087,202150,公建公营,周妹
61,崇明区,东平镇,上海市崇明东平养老院,50,2003-06-19,上海市崇明区东平镇平悦路728号,021-59666099,202178,公建公营,龚敏
62,崇明区,港西镇,上海崇明区港西第一敬老院,130,1979-08-01,上海市盘西长生1197号,59670170,202154,公建民营,李菊花
63,崇明区,港西镇,上海崇明协兴养老院,106,2006-11-09,上海市三双公路2005号,021-59676108,202154,民建民营,蔡云娟
64,崇明区,港沿镇,上海崇明区港沿敬老院,133,1958-08-07,上海市港沿公路1101号,021-59461248,202158,公建民营,张凤侠
65,崇明区,建设镇,上海崇明区大同敬老院,171,1989-03-08,上海市蟠龙公路1278号,13701708168,202155,公建民营,杨建英
66,崇明区,建设镇,上海崇明区建设敬老院,137,1958-04-10,上海市滧东村红梅312号,59330526,202155,公建民营,张凤侠
67,崇明区,建设镇,上海崇明民福养护院,499,2017-12-11,上海市崇明区建设镇建星路88号,69601015,202155,公建民营,周忠惠
68,崇明区,绿华镇,上海崇明区绿华敬老院,75,1983-10-03,上海市崇明区绿华镇新建路894号,59351659,202151,公建民营,李菊花
69,崇明区,绿华镇,上海市崇明绿港养老公寓,60,2008-10-10,上海市崇明区绿华镇绿港村521号,59554388,202151,民建民营,武登扣
70,崇明区,绿华镇,上海爱照护瑞瀛养老服务有限公司崇明分公司,108,2021-01-07,上海市东滩大道100弄9号16-2幢,021-33800086,,民建民营,童晓春
71,崇明区,庙镇,上海崇明区合作敬老院,170,1995-12-11,上海市合作公路1318号,021-59382287,202153,民建民营,徐永德
72,崇明区,庙镇,上海崇明庙镇敬老院,180,1959-12-03,上海市崇明区庙镇民华村624号,69361642,202153,公建公营,张卫忠
73,崇明区,庙镇,上海崇明方顺养老院,140,1958-10-10,上海市庙西村西首,59362428,202153,民建民营,方士元
74,崇明区,庙镇,上海市崇明区庙镇江合养护院,102,2015-03-05,上海市猛将庙,59387029,202153,民建民营,陆善卫
75,崇明区,庙镇,上海市崇明江龙老年公寓,190,2003-10-10,上海市宏海公路88号,021-69361001,202165,民建民营,张成刚
76,崇明区,三星镇,上海崇明三星镇海桥养老院,285,,上海市崇明区海桥公路108弄1号,,,,张镭花
77,崇明区,三星镇,上海崇明区三星敬老院,179,1958-02-01,上海市协进村496号,59601521,202152,公建民营,杨华
78,崇明区,竖新镇,上海崇明区竖河敬老院,154,1985-06-01,上海市永兴村朱桥211号,59481712,202164,公建民营,顾晓喻
79,崇明区,竖新镇,上海崇明嘉龙养老院,275,2006-06-01,上海市大东村682号,021-59492207,202179,民建民营,王震民
80,崇明区,向化镇,上海崇明区向化敬老院,121,1958-06-11,上海市米新村168号,59447225,202161,公建公营,蔡敬天
81,崇明区,新村乡,上海崇明区新村敬老院,78,1984-05-01,上海市崇明区新村乡新浜村1476号,59651541,202172,公建公营,张海华
82,崇明区,新海镇,上海崇明新海怡心养老院,100,2011-05-11,上海市崇明区新海镇兴阔路189号,59655072,202172,公建公营,刘静
83,崇明区,新河镇,上海崇明区新民敬老院,148,1957-08-06,上海市强民村137号,59371210,202156,公建民营,黄慧
84,崇明区,新河镇,上海崇明区新河敬老院,232,1958-09-10,上海市石路村1158号,59681364,202156,公建民营,秦忠旋
85,崇明区,长兴乡,上海市宝山区社会福利院,200,1979-04-26,上海市崇明区长兴镇潘园公路3536号,56851473,201913,公建公营,张少逸
86,崇明区,长兴镇,上海崇明长兴第二养老院,383,2023-11-21,上海崇明区长兴镇金滂路950号,021-56850805,,公建公营,邱勤
87,崇明区,中兴镇,上海崇明区广福养老院,182,1958-05-28,上海市红星村5队,69446527,202163,公建公营,戴雷萍
88,奉贤区,奉城镇,上海奉贤区奉城镇敬老院,100,2019-08-18,上海市塘外社区人民路108号,57170103,201408,公建民营,周丽英
89,奉贤区,奉城镇,上海奉贤区鸿恩托老所,58,2005-04-07,上海市洪北村501号,57133069,201411,民建民营,康华
90,奉贤区,海湾镇,上海奉贤区海湾镇敬老院,182,2016-09-01,上海市奉贤区海湾镇五四公路1558弄,021-37598090,201422,公建公营,姚俊
91,奉贤区,金海街道,上海奉贤区金海悦心颐养院,310,2021-07-23,上海市俊园路50号,021-67180277,,公建民营,王青
92,奉贤区,金汇镇,上海奉贤区泰日光星养老院,96,2004-04-26,上海市泰日社区光星路551号,18916132555,201405,民建民营,白勇
93,奉贤区,金汇镇,上海奉贤区逸仙颐养院,768,2018-08-16,上海市望河路89号,57575596,201404,公建民营,冯强
94,奉贤区,金汇镇,上海奉贤区金汇养老院,130,2012-10-02,上海市金钱公路718号,13817269966,201404,民建民营,黄全东
95,奉贤区,金汇镇,上海奉贤区金汇镇敬老院,431,2020-05-25,上海市金钱公路868号,021-37566058,201404,公建民营,方琼
96,奉贤区,金汇镇,上海奉贤区金汇镇泰日敬老院,110,1958-01-01,上海市泰青路501号,57586135,201405,公建公营,褚德忠
97,奉贤区,南桥镇,上海奉贤区光明社区颐养院,250,2021-04-13,上海市光明社区优化路72号,33112678,201406,公建民营,李茜
98,奉贤区,南桥镇,上海奉贤区南桥镇光明村养老院,150,2006-04-28,上海市光钱公路500弄195号,021-57473052,201406,公建民营,李茜
99,奉贤区,南桥镇,上海奉贤区南桥镇江海敬老院,252,1997-07-01,上海市奉贤区南桥镇江南路469号,57188525,201400,公建民营,陆英
100,奉贤区,南桥镇,上海奉贤区明馨艺术养老院,300,2009-12-30,上海市金海公路2488号,021-61909190,201406,民建民营,徐林芳
101,奉贤区,南桥镇,上海奉贤区益人养老院,149,2003-08-21,上海市优化路58弄8-18号,021-57470800,201400,民建民营,施明
102,奉贤区,青村镇,上海奉贤区兰公馆养老院,401,2010-02-02,上海市南奉公路4999号,33616880,201414,民建民营,张莉颖
103,奉贤区,青村镇,上海奉贤区金苹果养老院,160,2013-05-01,上海市奉贤区青村镇南奉公路4146号,31115700,201414,民建民营,吴红镁
104,奉贤区,四团镇,上海奉贤区四团镇敬老院,232,1985-05-06,上海市北街100号,57533540,201412,公建公营,瞿建军
105,奉贤区,头桥街道,上海奉贤区奉城镇头桥敬老院,50,1984-09-01,上海市新奉公路4942号,57551026,201409,公建公营,周丽英
106,奉贤区,头桥街道,上海市奉贤区维丰颐养院,161,2013-12-02,上海市奉贤区头桥街道头桥幸福村一支路58号,57558800,201409,民建民营,瞿维兵
107,奉贤区,西渡街道,上海奉贤区五宅青春里颐养院,150,2021-06-08,上海市五宅村107号,021-67150800,,公建民营,金硕贇
108,奉贤区,西渡街道,上海奉贤区永生养老院,100,2001-01-01,上海市奉金路766号,15300797082,201401,民建民营,杨英
109,奉贤区,西渡街道,上海市奉贤区南桥镇关港养老院,208,2006-12-22,上海市关港村399号,57489186,201404,民建民营,何洪昌
110,奉贤区,柘林镇,上海奉贤区柘林镇福利院,385,2002-02-02,上海市永革村北横路638号,57459155,201417,公建民营,陶芸
111,奉贤区,庄行镇,上海奉贤区乐慧养老院,357,2004-04-01,上海市邬桥社区安邬路188号,57404312,201402,民建民营,顾国明
112,奉贤区,庄行镇,上海奉贤区伊甸敬老院,86,2004-01-08,上海奉贤区庄行镇庄北路301号,57468268,201415,民建民营,相丽雄
113,奉贤区,庄行镇,上海奉贤区庄行镇邬桥敬老院,118,2008-01-14,上海市渔沥村耀光1433号,57403090,201402,公建公营,蒋新村
114,奉贤区,庄行镇,上海奉贤区长远养老院,140,2010-12-23,上海市邬桥社区安东路58号,57403219,201402,民建民营,俞长仙
115,奉贤区,庄行镇,上海新华老年公寓,200,2015-06-01,上海市南亭公路4388号,021-57467029,201415,民建民营,蒋佳学
116,虹口区,广中路街道,上海虹口区红日家园老年公寓,200,2018-09-14,上海市红日家园老年公寓,56408900,200083,民建民营,陈琦
117,虹口区,广中路街道,上海虹口区银龄知音养老院,212,2014-04-28,上海市北宝兴路611号,021-56612586,200083,民建民营,吴军
118,虹口区,广中路街道,上海虹口长寿家园南苑养护院,117,2021-10-21,上海市水电路54号,18221938297,,民建民营,边一行
119,虹口区,广中路街道,上海长护虹康养老服务有限公司,0,,上海市虹口区东江湾路 151、157、167 号，第 A 幢 4-5层，（编号：425室）,,,,李敬嘉
120,虹口区,嘉兴路街道,上海市虹口区嘉兴路街道天宝养老院,440,2017-02-24,上海市天宝路881号,021-55883922,200086,公建民营,陆珺
121,虹口区,江湾镇,上海市虹口区为民敬老院,107,2017-12-22,上海市虹口区江湾镇三门路759弄弄49号,65166335,200434,民建民营,杨金妹
122,虹口区,江湾镇,上海市虹口博慈河滨敬老院,100,2011-02-28,上海市新市南路1104号,65360690,200434,民建民营,应向荣
123,虹口区,江湾镇,上海市虹口江湾镇敬老院,120,2004-05-14,上海市场中路769号,66820187,200434,民建民营,陈凌空
124,虹口区,江湾镇,上海海江瑞祥养护院,75,2016-08-17,上海市虹口区江湾镇保宁路44号,15656666288,200434,民建民营,林瑞棋
125,虹口区,江湾镇,上海虹口区吉阳红敬老院,204,2009-04-14,上海市虹口区江湾镇街道纪念路335弄10号,021-65170621,200434,民建民营,陈昀
126,虹口区,江湾镇,上海虹口区广中路街道敬老院,77,2016-10-20,上海市新市南路488弄15号,021-55780993,200434,公建民营,田梦然
127,虹口区,江湾镇,上海虹口区银康老年公寓,462,2012-09-05,上海市凉城路2283号,021-66980567,200434,民建民营,汪晓鸣
128,虹口区,江湾镇街道,上海虹口区广济养老院,150,2003-05-23,上海市虹口区纪念路500号,65619720,200434,民建民营,林力
129,虹口区,凉城新村街道,上海市虹口区奎照老年福利院,148,2017-04-25,上海市虹口区凉城新村街道奎照840,021-65012760,200434,公建民营,徐诚
130,虹口区,凉城新村街道,上海市虹口区彩虹湾老年福利院,860,2019-02-03,上海市2196号,31106997,200434,公建民营,徐诚
131,虹口区,凉城新村街道,上海虹口区凉城新村街道敬老院,50,1994-07-01,上海市虹口区凉城新村街道凉城路547号,65298467,200434,公建民营,华小兰
132,虹口区,凉城新村街道,上海虹口区申虹敬老院,91,2017-12-22,上海市虹口区凉城新村街道凉城路854号,021-65286173,200434,民建民营,魏天星
133,虹口区,凉城新村街道,上海逸仙虹福养老服务有限公司,165,,上海市虹口区广灵四路268号底层-1室、2-6层,,,,冯强
134,虹口区,欧阳路街道,上海市虹口欧阳路街道祥德敬老院,100,2014-12-23,上海市虹口区欧阳路街道祥德路302号,65556350,200081,民建民营,苗成
135,虹口区,欧阳路街道,上海虹口区祥云敬老院,140,2018-11-09,上海市四达路,65086722,200081,民建民营,苗成
136,虹口区,欧阳路街道,上海虹口区长寿和庭养护院,159,2017-10-10,上海市山阴路277号,65871377,200081,民建民营,边一行
137,虹口区,欧阳路街道,上海虹口弘云养护院,60,2023-12-01,上海市虹口区欧阳路街道密云路290号,18916098874,200081,民建民营,林经江
138,虹口区,曲阳路街道,上海天成养老院,205,2015-01-18,上海市赤峰路404弄31号,55886216,200083,民建民营,刘红菊
139,虹口区,曲阳路街道,上海市虹口区社会福利院,200,1987-12-01,上海市密云路623号,65546977,200437,公建公营,周勇
140,虹口区,曲阳路街道,上海虹口区兰公馆养老院,837,2018-11-16,上海市中山北山一路903号,60323211,200011,民建民营,张莉颖
141,虹口区,曲阳路街道,上海虹口区建阳养老院,180,2009-08-01,上海市虹口区曲阳路街道中山北二路2199号,65368457,200434,民建民营,徐文停
142,虹口区,曲阳路街道,上海虹口区瑞信养老院,134,2012-10-09,上海市鸿雁居委会上海市虹口区赤峰路600弄18号,65608619,200083,民建民营,张正国
143,虹口区,四川北路街道,上海市虹口区四川北路街道吉祥养老院,196,2018-08-01,上海市吉祥路69号,56372223,200081,公建民营,董德胜
144,虹口区,四川北路街道,上海虹叶养老院,250,2014-09-21,上海市溧阳路1084弄28号,56719977,200081,公建民营,李英
145,虹口区,四川北路街道,上海虹德养老院,205,2015-10-14,上海市衡水路367号,021-63567922,200080,民建民营,狄德才
146,黄浦区,半淞园路街道,上海市黄浦区老年公寓,110,2015-12-03,上海市海潮路151号,63230650,200003,公建公营,季明凤
147,黄浦区,半淞园路街道,上海黄浦区全程玖玖馨逸养护院,222,2021-07-01,上海市徽宁路666号,63666799,,公建民营,封吟颖
148,黄浦区,半淞园路街道,上海黄浦区半凇园兰公馆老年公寓,100,2015-07-20,上海市中山南路1418号12楼,63309715,200010,民建民营,张莉颖
149,黄浦区,半淞园路街道,上海黄浦区华康恒裕养护院,392,2022-08-01,上海市普育西路103号,021-63307993,,公建民营,王新江
150,黄浦区,半淞园路街道,上海黄浦区春升老年公寓,52,2009-12-31,上海市黄浦区半淞园路街道南车站555,13917898625,200011,民建民营,何季生
151,黄浦区,打浦桥街道,上海益福荟养老服务有限公司,69,2023-10-12,上海市黄浦区打浦桥街道顺昌路612弄16号3层301室,021-63856606,,民建民营,王慧
152,黄浦区,淮海中路街道,上海黄浦区慧享福福荟颐养院,113,2023-11-20,上海市黄浦区淡水路325号1-5层,021-53520151,,民建民营,陈艳
153,黄浦区,老西门街道,上海快乐之家养护院,96,2016-04-28,上海市黄家路195号,63732770,200010,民建民营,王海水
154,黄浦区,老西门街道,上海龙祥养老院,28,2008-10-01,上海市大吉路44弄14支弄6号,021-63451099,200011,民建民营,朱龙兴
155,黄浦区,南京东路街道,上海黄浦区爱以德养老院,412,2020-06-16,上海市广东路495、525号,63335890,200001,民建民营,李珺
156,黄浦区,五里桥街道,上海百家乐养老院,258,2015-01-20,上海市鲁班路499号,63340268,200010,民建民营,韩菊娣
157,黄浦区,五里桥街道,上海银色港湾福利院,275,2000-12-01,上海市瞿溪路700号,63044218,200023,民建民营,郦福祥
158,黄浦区,五里桥街道,上海黄浦区中三敬老院,52,1998-10-26,上海市瞿溪路1252弄1号乙幢,63030584,200023,民建民营,郑芳群
159,黄浦区,五里桥街道,上海黄浦区五里桥街道萌志敬老院,136,2019-11-18,上海市蒙自路654号,13370016427,200020,公建民营,秦秋燕
160,黄浦区,五里桥街道,上海黄浦区五里桥街道顾卞裘莉敬老院,70,2018-02-07,上海市瞿溪路1111弄26号,63317009,200023,公建民营,秦秋燕
161,嘉定区,安亭镇,上海市嘉定区安亭镇方泰敬老院,128,1999-11-01,上海市方中路160号,59509639,201814,公建公营,朱红英
162,嘉定区,安亭镇,上海市嘉定区安亭镇黄渡敬老院,316,1983-07-29,上海市嘉定区安亭镇新黄路1号,59595715,201804,公建公营,林美萍
163,嘉定区,安亭镇,上海市安亭社会福利院,648,2006-05-25,上海市外青松公路10号桥西鸵鸟路555号,69571900,201805,公建公营,沈莉青
164,嘉定区,华亭镇,上海市嘉定区华亭敬老院,880,2014-05-01,上海市华谊一路176号,59970181、59970559,201811,公建公营,周根兴
165,嘉定区,华亭镇,华亭综合为老服务中心,22,,上海市嘉定区华亭镇华谊一路172号,,,,张迪芳
166,嘉定区,嘉定工业区,上海嘉定区虬桥社会福利院,305,2008-03-28,上海市虬桥路300号,021-69161122,201821,公建公营,管富根
167,嘉定区,嘉定工业区,济华颐养院（上海）有限公司,210,2024-10-10,上海市嘉定区嘉定工业区胜辛北路1771弄2号、3号,021-31088898,,民建民营,赵卫平
168,嘉定区,嘉定镇,上海市嘉定社会福利院,252,1983-04-05,上海市菊园新区北大街301号,021-59923303,201800,公建公营,高美华
169,嘉定区,江桥镇,上海市嘉定区江桥镇封浜敬老院,400,1986-12-01,上海市星华公路2022号,39115296,201812,公建公营,姚爱忠
170,嘉定区,江桥镇,上海椿萱茂养老服务（院）有限公司,381,2020-09-29,上海市嘉定区江桥镇黄家花园路128弄1号,021-33513377,201812,民建民营,罗剑
171,嘉定区,江桥镇,上海爱以德协通嘉悦养老院有限公司,236,2024-07-01,上海市嘉定区星华公路2533号1幢,021-31836670,,民建民营,林志海
172,嘉定区,菊园新区管委会,上海东方老年公寓,350,2005-12-15,上海市嘉定区菊园新区沪宜公路弄4800号,021-69968940,201800,民建民营,王鲁明
173,嘉定区,菊园新区管委会,上海众仁老年养护院,450,2017-05-01,上海市嘉定区菊园新区胜竹路1655号1655号,69951903,201802,公建公营,龚晓燕
174,嘉定区,菊园新区管委会,上海市众仁慈善服务中心众仁老人乐园,350,2008-08-06,上海市嘉定区菊园新区平城路160号,69905328,201800,公建公营,龚晓燕
175,嘉定区,马陆镇,上海嘉定区马陆镇福利院,562,2009-12-01,上海市嘉定区马陆镇大治路577弄,59516378,201822,公建公营,刘芹
176,嘉定区,马陆镇,上海市嘉定金马社区福利院,145,2010-01-10,上海市嘉定区马陆镇封周路631弄15号,39515055,201801,公建公营,张建新
177,嘉定区,南翔镇,上海人寿堂柠嘉养老院有限公司,778,2022-03-24,上海市嘉定区南翔镇嘉好路600号,69028000,201802,公建公营,张京锋
178,嘉定区,南翔镇,上海嘉定区南翔镇福利院,368,2001-06-12,上海市嘉定区南翔镇众仁路355弄号,021-59178761,201802,公建公营,黄成高
179,嘉定区,南翔镇,上海市嘉定永乐养老院,380,2009-06-01,上海市翔乐路265号,39199264,201802,公建公营,王小燕
180,嘉定区,外冈镇,上海市嘉定区外冈养老院,499,2017-06-18,上海市嘉定区外冈镇祁昌路弄365号,59588536,201806,公建公营,严晓芳
181,嘉定区,新成路街道,上海嘉定区新成路街道社会福利院,219,2023-07-04,上海市迎园路458号,69992678,201822,公建公营,曹雪琴
182,嘉定区,新成路街道,上海颐业养老院,183,2021-11-26,上海市澄浏中路3698号,021-69990000,,民建民营,刘娟美
183,嘉定区,新成路街道,上海颐康家园,1022,2013-03-15,上海市澄浏中路3000号,59990000,201822,民建民营,王志龙
184,嘉定区,徐行镇,上海嘉定康福敬养院,199,2002-12-01,上海市新建一路2258号,59556228,201808,民建民营,徐根明
185,嘉定区,徐行镇,上海市嘉定区徐行镇敬老院,260,2007-12-01,上海市嘉定区徐行镇新建一路弄2115号,021-59558470,201808,公建公营,周红芬
186,嘉定区,徐行镇,上海礼爱颐养院,298,2013-12-31,上海市嘉行公路1257号,59552266,201808,民建民营,陆惠明
187,嘉定区,真新街道,上海市嘉定区真新街道养老院,192,2003-07-06,上海市嘉定区真新街道祁连山南2500号,69180718,201824,公建公营,陈宇
188,金山区,漕泾镇,上海金山区漕泾镇敬老院,100,1994-04-08,上海市金山区漕泾镇中一西路488号,57251338,201507,公建公营,张秋红
189,金山区,枫泾镇,上海金山区枫泾镇第一敬老院,126,1989-09-01,上海市金山区枫泾镇枫杰路65号,57352396,201501,公建公营,沈阳阳
190,金山区,枫泾镇,上海金山区枫泾镇第二敬老院,128,1989-09-01,上海市金山区枫泾镇亭枫公路7038号,021-57361217,201502,公建公营,顾剑锋
191,金山区,金山工业区,上海金山区高新区敬老院,220,1985-12-18,上海市金山区金山工业区高林路128号,57273102,201506,公建民营,陈烨
192,金山区,金山卫镇,上海朗诗常青藤沪东养老服务有限公司金山分公司,178,2019-08-02,上海市学府路1581号,57222765,,民建民营,梁颖
193,金山区,金山卫镇,上海金夕老年公寓,172,2009-02-18,上海市金山区金山卫镇秦弯路1155弄19号,57291028,201515,民建民营,金海红
194,金山区,金山卫镇,上海金山区社会福利院,365,2012-10-08,上海市金山大道3528号,37316039,200540,公建公营,邱群英
195,金山区,金山卫镇,上海金山区金山卫镇敬老院,247,2004-02-18,上海市金山区金山卫镇张桥村刘埝7组2143号,57298868,201515,公建公营,陆树忠
196,金山区,廊下镇,上海金山区廊下镇敬老院,263,1984-05-08,上海市金山区廊下镇廊华公路156号,57391287,201516,公建民营,郭卫锋
197,金山区,吕巷镇,上海金山区吕巷镇干巷敬老院,50,1985-06-01,上海市金山区吕巷镇干林路2818号,57206981-8008,201518,公建民营,马翠英
198,金山区,吕巷镇,上海金山区吕巷镇敬老院,302,1999-06-29,上海市金山区吕巷镇太平村蒋巷1组,57371549,201517,公建公营,韩爱华
199,金山区,吕巷镇,上海鑫阳养老院,136,2018-07-10,上海市金山区吕巷镇汇丰大街588号,57325666,201518,民建民营,杨高
200,金山区,山阳镇,上海金山区山阳镇敬老院,362,2000-12-20,上海市金山区山阳镇山倪路1600号,57241684,201508,公建公营,戚旭旻
201,金山区,石化街道,上海金山区永乐养老院,150,2008-08-08,上海市施二路55弄2号,021-67221589,200540,民建民营,俞向东
202,金山区,石化街道,上海金山区海棠养老院,56,2023-11-01,上海市隆安路232号海棠新村70号,13764703334,,公建民营,万秀萍
203,金山区,石化街道,上海金山区石化街道敬老院,60,2003-05-28,上海市金山区石化街道石化十村113号,57936835,200540,公建公营,盛士芳
204,金山区,亭林镇,上海金山区亭林镇敬老院,101,1984-07-08,上海市金山区亭林镇桃贤路28号,57232009,201505,公建公营,庄慧君
205,金山区,亭林镇,上海金山区亭林镇松隐养老院,150,2005-02-08,上海市金山区亭林镇松隐大街456号,67229050,201504,民建民营,鲁增寿
206,金山区,亭林镇,上海金山区亭林镇松隐敬老院,54,1983-04-28,上海市金山区亭林镇松隐大街496号,57381091,201504,公建公营,王忠良
207,金山区,亭林镇,上海金山区亭林镇第二敬老院,88,2016-05-23,上海市金山区亭林镇大通路14号,67968832,201505,公建公营,王忠良
208,金山区,亭林镇,上海金福居敬老院,200,2008-12-01,上海市金山区亭林镇车亭公路3466号,021-57237111,201505,民建民营,许永春
209,金山区,张堰镇,上海九堰养老院有限公司,200,2021-03-05,上海市松金公路2800弄101-136号,021-57211996,,公建民营,房湦笛
210,金山区,张堰镇,上海金山区张堰镇敬老院,135,1985-02-28,上海市金山区张堰镇张漕公路28号,021-57217699,201514,公建公营,成娜红
211,金山区,朱泾镇,上海安宁养老院,100,2011-09-28,上海市金山区朱泾镇新农康健路46号,021-57346600,201503,公建公营,戈金宝
212,金山区,朱泾镇,上海新农普度养老院,161,2010-02-28,上海市金山区朱泾镇慧农村5008号,57341163,201503,民建民营,胡善红
213,金山区,朱泾镇,上海金山区朱泾镇第一敬老院,106,1985-04-18,上海市金山区朱泾镇民主村东方红11组3006号,57325501,201500,公建公营,王永华
214,金山区,朱泾镇,上海金山区朱泾镇第二敬老院,116,1978-10-01,上海市金山区朱泾镇浦银路240号,57345030,201503,公建公营,陆秋花
215,金山区,朱泾镇,上海金山区逸庭养老院,153,2018-05-25,上海市金山区朱泾镇金张公路7193号,57319716,201599,民建民营,潘兴观
216,金山区,朱泾镇,上海颐和苑养老中心,1792,2014-05-12,上海市金山区金石北路7800号,37284268,201599,民建民营,周保云
217,金山区,朱泾镇,上海颐和苑老年服务中心,966,2007-02-16,上海市金山区朱泾镇金石北路7666号,37284268,201599,民建民营,周保云
218,静安区,宝山路街道,上海静安区宝山路街道敬老院,50,2000-05-01,上海市静安区宝山路街道止园路400弄7号甲,56620793,200071,公建民营,王蔚
219,静安区,曹家渡街道,上海市静安区恒裕曹家渡老年福利院,499,2016-11-16,上海市静安区曹家渡街道万航渡路767弄43号,62307522,200042,公建民营,聂建明
220,静安区,曹家渡街道,上海静安区日月星养老院,302,2015-01-13,上海市余姚路338号,52752709,200042,民建民营,陈丽君
221,静安区,曹家渡街道,上海静安区曹家渡爱华养老院,120,2006-09-15,上海市胶州路485号,62157096,200042,民建民营,花智亮
222,静安区,大宁路街道,上海豪锦粤秀养老院,273,2007-12-18,上海市粤秀路518号,021-56773167,200072,民建民营,边一行
223,静安区,共和新路街道,上海益福养老院,58,2018-03-01,上海市静安区共和新路街道西藏北路/弄1375号,021-66271070    021-66270061,200070,民建民营,董士勇
224,静安区,共和新路街道,上海静安区共和新路街道敬老院,50,2000-05-01,上海市柳营路319弄45号甲,56422960,200072,公建民营,梁苏琴
225,静安区,共和新路街道,上海静安区颐和养老院,241,2011-05-02,上海市普善路858弄2号,51601145,200070,民建民营,肖镛芬
226,静安区,江宁路街道,上海市静安区乐宁老年福利院,167,2014-12-09,上海市景苑街道,62566060,200040,公建民营,刘柱
227,静安区,静安寺街道,上海静安区孙克仁老年福利院,125,2008-11-11,上海市静安区静安寺街道延安西路/弄399号,62489215,200040,公建公营,陈大为
228,静安区,静安寺街道,平安臻颐年（上海）企业管理有限公司静安八号养老服务分公司（颐年城·静安8号）,50,,上海市静安区常熟路8号（裙房）2层206室、3层301室、4层401室,,,,张明泽
229,静安区,临汾路街道,上海和养临汾养护院,321,2016-04-04,上海市静安区临汾路街道汾西路360号,36601366,200435,公建民营,潘寅磊
230,静安区,临汾路街道,上海市静安区和养老年福利院,317,2017-09-01,上海市阳泉路429号,021-56915473,200435,公建民营,赵斌
231,静安区,临汾路街道,上海静安区一家人家敬老院,100,2005-08-30,上海市阳曲路570弄7号,56889588,200435,民建民营,罗赛菊
232,静安区,临汾路街道,上海静安区和养天目西养护院,300,2010-12-21,上海市沪太路453弄84号,66290051,200070,公建民营,王振红
233,静安区,临汾路街道,上海静安区爱知里敬老院,42,2019-07-03,上海市静安区临汾路街道闻喜路251弄23号,58858805,200435,民建民营,赵剑春
234,静安区,彭浦新村街道,上海和养第二老年公寓,130,2006-10-26,上海市静安区彭浦新村街道临汾路1513弄45号,52843156,200435,公建民营,金伟勇
235,静安区,彭浦新村街道,上海静安三普养老院有限公司,550,2023-03-02,上海市静安区平型关路1619弄1号,021-66989800,,民建民营,蒋国健
236,静安区,彭浦新村街道,上海静安区文华敬老院,146,2001-07-08,上海市彭浦新村,56404753,200443,民建民营,熊文静
237,静安区,彭浦镇,上海和养宝华养护院,340,2016-10-18,上海市静安区彭浦镇江场西路1200号,56208166-8000,200436,公建民营,朱淼雯
238,静安区,彭浦镇,上海和养彭浦养护院,405,2016-12-22,上海市静安区江场西路1655号,35653599,200436,公建民营,张亚东
239,静安区,彭浦镇,上海静安区皓馨养老院,60,2005-06-29,上海市静安区彭浦镇场中路3332弄1号,56506853,200436,民建民营,杨坚
240,静安区,芷江西路街道,上海静安区芷江西路街道居家养老服务中心,10,,上海市徐家宅路93号3楼,,,,唐海波
241,闵行区,古美路街道,上海闵行区古美敬老院,95,2000-07-01,上海市闵行区古美街道虹莘路2288弄135号,54162838,201101,公建公营,钱家民
242,闵行区,古美路街道,上海闵行区平阳敬老院,200,2008-11-01,上海市闵行区古美街道平阳路1225号,34174387,201102,公建公营,俞炳荣
243,闵行区,古美路街道,上海闵行区莲花老年公寓,187,2006-09-01,上海市闵行区古美街道莲花路1115号,34226575,201102,公建民营,陈振威
244,闵行区,虹桥镇,上海市长宁区社会福利院,120,1990-10-01,上海市闵行区虹桥镇红松路81弄158号,021-34213279,201103,公建公营,张哲人
245,闵行区,虹桥镇,上海程家桥耆乐园养老院有限公司,184,2018-09-03,上海市闵行区虹桥镇程家桥路238号、258号6幢、10幢,021-64020768,201103,民建民营,汤忠萍
246,闵行区,虹桥镇,上海闵行区虹桥镇敬老院,605,1993-10-01,上海市闵行区虹桥镇环镇南路120号,64063939,201103,公建公营,赵韵
247,闵行区,虹桥镇,上海闵行区虹桥镇龙柏敬老院,72,1998-10-01,上海市闵行区虹桥镇龙柏七村104号,34313038,201103,公建公营,王蓓兰
248,闵行区,华漕禛,上海闵行区华漕镇敬老院,500,2001-04-01,上海市季乐路76号,62212615,201107,公建民营,徐怡
249,闵行区,华漕禛,上海闵行区西郊福利院,304,2022-11-01,上海市繁兴路461号,62203788,,民建民营,阮彩友
250,闵行区,华漕镇,上海新东苑养老服务有限公司快乐家园养老院,420,2017-12-01,上海市金光路199弄,64062222,201107,民建民营,沈慧琴
251,闵行区,华漕镇,上海闵行区继王敬老院,271,2009-03-01,上海市闵行区华漕镇纪翟路2780号,52968668,201107,民建民营,孙惠珍
252,闵行区,江川路街道,上海恩光敬老院,132,1999-09-01,上海市闵行区江川路街道凤庆路1058号,64635483,200240,民建民营,张爱理
253,闵行区,江川路街道,上海闵行区江川敬老院,426,2017-08-01,上海市闵行区江川路街道江川东路830弄27号,64202287,200240,公建民营,华锋英
254,闵行区,江川路街道,上海闵行区海鸥养老院,725,2022-07-20,上海市江川路街道碧江路310号,021-60901580,,民建民营,王东峰
255,闵行区,马桥镇,上海闵行区华哈养老院,140,2008-08-01,上海市闵行区马桥镇昆阳路168号,51103858,201111,民建民营,郑科
256,闵行区,马桥镇,上海闵行区扩伦福利院,293,2006-07-01,上海市闵行区马桥镇江川路1565弄10号12号,34098733,201111,民建民营,唐伟荣
257,闵行区,马桥镇,上海闵行区紫江敬老院,81,2010-08-01,上海市闵行区马桥镇北松公路818号,64093266,201111,民建民营,楼乐华
258,闵行区,马桥镇,上海闵行区马桥镇敬老院,394,1984-05-01,上海市元松15号,54842967,201111,公建公营,叶永强
259,闵行区,梅陇镇,上海市闵行区梅陇颐乐养老院,498,2015-06-01,上海市闵行区梅陇镇双柏路1333弄58号,52217891,201108,公建民营,杨嵘
260,闵行区,梅陇镇,上海闵行区曙东颐养院,1366,,上海市金都路1509号,,,,袁久红
261,闵行区,梅陇镇,上海闵行区虹梅敬老院,200,1999-08-01,上海市闵行区梅陇镇景联路1109号,64973228,201108,公建民营,张世伟
262,闵行区,梅陇镇,上海闵行区陇南敬老院,189,2015-02-01,上海市虹梅南路768号,54573258,200237,民建民营,樊大荣
263,闵行区,浦江镇,上海浦江星堡老年服务有限公司,762,2016-03-01,上海市闵行区联航路1505弄5号楼1层、202-207室,021-31001518,201112,民建民营,丁双沂
264,闵行区,浦江镇,上海闵行区一家人敬老院,519,2013-06-03,上海市闵行区浦江镇召楼路2926号,021-34793100,201112,公建民营,钱家民
265,闵行区,浦江镇,上海闵行区晨星敬老院,56,2011-12-01,上海市闵行区浦江镇沿浦路15号,64918691,201112,民建民营,张雨仙
266,闵行区,浦江镇,上海闵行区江航养老院,180,2021-06-03,上海市浦航路379号,64910009,,公建民营,蒋冬华
267,闵行区,浦江镇,上海闵行区浦江永康城养老院,384,2024-10-16,上海市跃进河路599号,34687161,,公建民营,孙晴云
268,闵行区,浦江镇,上海闵行区浦江鲁坤养老院,252,2022-07-14,上海市鲁坤路321号,17301828180、31108269,,公建公营,王新江
269,闵行区,浦江镇,上海闵行区福星养老院,128,2019-04-02,上海市苏召路1086号,021-33882868,201114,民建民营,陈海锋
270,闵行区,浦锦街道,上海新浦江耆乐园养老院有限公司,148,2017-10-01,上海市闵行区浦锦街道浦锦路1246号,021-64899980,201112,民建民营,张燕萍
271,闵行区,浦锦街道,上海闵行区世柏敬老院,62,2014-05-01,上海市闵行区浦锦街道南江燕路409号,20922999,201114,公建民营,杨正权
272,闵行区,七宝镇,上海闵行区七宝敬老院,316,2017-11-01,上海市中谊路965号,021-52965271,201101,公建民营,范哲沂
273,闵行区,七宝镇,上海闵行区中谊福利院,731,2009-07-01,上海市闵行区七宝镇中谊路955号1号楼,54889450,201101,公建公营,王金莉
274,闵行区,莘庄工业区,上海闵行区莘庄工业区敬老院,290,2011-11-01,上海市闵行区莘庄工业区联农路588号,52961911,201108,公建民营,王新江
275,闵行区,莘庄镇,上海喜满楼敬老院,180,2007-12-01,上海市闵行区莘庄镇中春路5801号,13003197423,201114,民建民营,唐咸喜
276,闵行区,莘庄镇,上海南张安老院,80,1989-12-01,上海市闵行区莘庄镇秀文路485弄50号,54136708,201199,民建民营,吴高生
277,闵行区,莘庄镇,上海闵行区康城敬老院,151,2012-05-01,上海市闵行区莘庄镇莘松路958弄大浪湾道66-67号,64930775,201199,公建民营,陈光明
278,闵行区,莘庄镇,上海闵行区莘庄镇敬老院,550,2009-10-01,上海市莘西路66号,64983655*8110,201199,公建民营,陆建新
279,闵行区,吴泾镇,上海祥和敬老院,50,2009-04-23,上海市龙吴路5591号,64525033,200241,民建民营,吴慧
280,闵行区,吴泾镇,上海闵行区亲情安养院,192,2005-08-01,上海市闵行区剑川路50弄28号,13341619815,200241,民建民营,张琳
281,闵行区,吴泾镇,上海闵行区吴泾镇敬老院,99,1992-03-01,上海市剑川路100弄139号,64520174,200241,公建民营,周靓
282,闵行区,吴泾镇,上海闵行区夕阳红养老院,100,2009-02-01,上海市闵行区吴泾镇剑川路50弄200号,64503885,200241,民建民营,蒋定君
283,闵行区,吴泾镇,上海闵行区永德敬老院,380,2018-09-03,上海市曹家塘路100号,021-34121291,200241,公建民营,周靓
284,闵行区,新虹街道,上海闵行区呵护家颐养院,493,2019-01-03,上海市闵行区新虹街道南华路35号,021-66263777,0,民建民营,林道永
285,闵行区,新虹街道,上海闵行区新虹敬老院,197,2011-05-01,上海市闵行区新虹街道润虹路798号,021-34665055,201107,公建民营,陆英
286,闵行区,颛桥镇,上海大华福利院,290,1999-09-01,上海市闵行区颛桥镇中春路2626号,64896890,,民建民营,吴桂明
287,闵行区,颛桥镇,上海闵行区北桥老年福利院,92,2019-02-19,上海市沪闵路1810号,33360523,201108,公建民营,王子恪
288,闵行区,颛桥镇,上海闵行区君莲养老院,498,2014-11-14,上海市闵行区颛桥镇沪光路225号,021-54724882,201108,公建公营,诸培红
289,闵行区,颛桥镇,上海闵行区爱德养老院,181,1997-07-01,上海市闵行区颛桥镇沪闵路1774号C座南门,64906949,201108,公建民营,李峥
290,闵行区,颛桥镇,上海闵行区福禄寿敬老院,320,1995-04-01,上海市闵行区颛桥镇瓶北路38号,021-64908100,201109,民建民营,吴凤美
291,闵行区,颛桥镇,上海闵行区颛桥敬老院,158,2005-08-29,上海市联农路39号,64422475,201108,公建公营,曹永其
292,浦东新区,北蔡镇,上海市黄浦区小东门街道敬老院,50,1997-11-01,上海市浦东新区北蔡镇沪南路2441弄28号,68933604,201204,民建民营,陈艳
293,浦东新区,北蔡镇,上海万福年华养护院,89,2016-04-13,上海市浦东新区北蔡镇沪南路865号,021-68580955,201204,民建民营,谢文林
294,浦东新区,北蔡镇,上海信养养老服务有限公司浦东信颐养老院分公司,176,2021-12-31,上海市北艾路1481、1485号,13818883031,,民建民营,魏松
295,浦东新区,北蔡镇,上海凯健华鹏养老院有限公司,78,2012-06-14,上海市华鹏路96号,68387000,200125,民建民营,邵明
296,浦东新区,北蔡镇,上海安达养护院,195,2003-08-08,上海市浦东新区北蔡镇莲园路359号,50421225,201204,民建民营,何敏
297,浦东新区,北蔡镇,上海市浦东新区北蔡镇莲溪养护院,196,2005-01-31,上海市北中路575号,58911753,200120,公建公营,赵文蓉
298,浦东新区,北蔡镇,上海市浦东新区北蔡镇鹏海养护院,283,2024-06-05,上海市浦东新区五星路375号,021-50580566,,公建民营,徐晓卿
299,浦东新区,曹路镇,上海市浦东新区曹路养护院,506,2022-03-08,上海市龚路支路385号,18317151522,,公建民营,高万杰
300,浦东新区,曹路镇,上海市浦东新区曹路镇期颐养老院,250,2006-06-09,上海市浦东新区曹路镇杨东路6号,021-58632886,201209,公建民营,董志刚
301,浦东新区,曹路镇,上海市浦东新区曹路镇顾路养护院,413,2005-02-20,上海市顾东村吴家宅8号,58630900,201209,公建民营,周雪萍
302,浦东新区,曹路镇,上海正华养老院,155,2004-09-10,上海市川沙路1188号,58561117,201209,民建民营,陶秀群
303,浦东新区,曹路镇,上海浦东新区互利佳养护院,306,2021-11-15,上海市浦东新区民秋路578、632号,021-50759680,,民建民营,华征宇
304,浦东新区,川沙新镇,上海善芯养护院,250,2007-08-27,上海市浦东新区川沙新镇陈桥村888号-1,58167771,201322,民建民营,陆璐
305,浦东新区,川沙新镇,上海市浦东新区川沙养护院,636,2023-05-18,上海市川周公路8285号,68650219,,公建民营,朱懿德
306,浦东新区,川沙新镇,上海市浦东新区川沙新镇德川养护院,303,2009-07-13,上海市德川路469号,58447986,201200,公建公营,顾伟慧
307,浦东新区,川沙新镇,上海市浦东新区浦惠明川养护院,608,2013-12-26,上海市浦东新区川沙新镇明川路258号,68911231,201200,公建民营,夏蔚峰
308,浦东新区,川沙新镇,上海浦东新区会龙养老院,80,2005-01-05,上海市浦东新区川沙新镇六灶社区会龙村三组,18221918985,201322,民建民营,刘凯
309,浦东新区,川沙新镇,上海浦东新区川沙六团敬老院,100,2003-12-05,上海市浦东新区川沙新镇德兴街55号,58593784,201202,公建公营,乔燕
310,浦东新区,川沙新镇,上海浦东新区川沙第二敬老院,158,2018-09-17,上海市浦东新区川沙新镇川黄路1号桥东首,58981885，68650157,201200,公建公营,周峰
311,浦东新区,大团镇,上海公谊养护院,130,2005-12-09,上海市浦东新区大团镇团新村10组,13916708713,201311,民建民营,丁美凤
312,浦东新区,大团镇,上海浦东新区大团敬老院,120,2001-05-30,上海市浦东新区大团镇永春东路16号,58082515,201311,公建民营,张国芳
313,浦东新区,大团镇,上海浦东新区永春养护院,150,2003-11-26,上海市浦东新区大团镇永春东路18号,021-58086248,201311,民建民营,王晓君
314,浦东新区,大团镇,上海能益养老院,252,2003-01-14,上海市浦东新区大团镇扶栏村438号,021-20799668,201312,民建民营,王建龙
315,浦东新区,东明路街道,上海市浦东新区东明路街道世博家园养老院,200,2007-09-10,上海市东泰林路158号,50658622,201204,公建民营,严海滨
316,浦东新区,东明路街道,上海市浦东新区东明路街道心悦家园养老院,108,2018-11-19,上海市浦东新区东明路街道环林东路815、817号,58382826,200123,公建民营,严海滨
317,浦东新区,东明路街道,上海市浦东新区东明路街道永泰养老院,93,2004-12-01,上海市浦东新区东明路街道永泰路1129弄96号,50652790,200123,公建民营,龚毅
318,浦东新区,高东镇,上海市浦东新区高东镇第一养老院,305,2011-08-10,上海市浦东新区高东镇镇南路116号,20250776,201208,公建公营,包维璐
319,浦东新区,高桥镇,上海市浦东新区高桥镇凌桥养护院,376,2018-05-04,上海市浦东新区高桥镇双江路1323号、1339号,24150707,200137,公建公营,辛燕丽
320,浦东新区,高桥镇,上海浦东新区金色港湾老年公寓,250,2001-06-18,上海市溪兰路125号,58674032,200126,民建民营,谢荣娣
321,浦东新区,高桥镇,上海浦东新区高桥吉祥敬老院,250,2006-10-10,上海市浦东新区高桥镇欧高路382号,58677838,200137,公建公营,辛燕丽
322,浦东新区,高桥镇,上海浦东新区高桥幸福敬老院,80,2006-10-10,上海市浦东新区高桥镇学后街路39号,50412511,200137,公建公营,辛燕丽
323,浦东新区,高行镇,上海市浦东新区高行镇万安养老院,500,2009-04-02,上海市新行路306号,68689881,201208,公建公营,王莉馨
324,浦东新区,航头镇,上海市浦东新区浦惠鹤韵养护院,113,2019-01-04,上海市浦东新区航头镇鹤韵路201号,021-68015699,201317,公建民营,夏蔚峰
325,浦东新区,航头镇,上海市浦东新区航头镇鹤祥颐养院,200,2022-11-10,上海市南航路19号,15821233872,,公建民营,朱赟
326,浦东新区,航头镇,上海市浦东新区鹤波养护院,242,2023-02-15,上海市航春路700号,31011959（业务办）*18721388700夏老师,,公建民营,张勇
327,浦东新区,航头镇,上海浦东新区航头镇下沙敬老院,426,2001-04-11,上海市浦东新区下沙沪南路4845号,58141048,201317,民建民营,杨正权
328,浦东新区,航头镇,上海浦东新区航头阳光养老院,186,2007-04-10,上海市航南路101号,68221299,201316,民建民营,黄依荔
329,浦东新区,航头镇,上海白金养老院,246,2007-08-08,上海市下沙新街103号,58145775,201300,民建民营,滕世瑞
330,浦东新区,航头镇,上海航馨养护院,380,2001-05-30,上海市浦东新区航头镇航南公路501号,58229011,201316,民建民营,陆明
331,浦东新区,航头镇,上海香柏养老院,75,2006-09-26,上海市浦东新区航头镇下盐路1018号,58140730,201317,民建民营,颜鸿斌
332,浦东新区,合庆镇,上海浦东新区合庆敬老院,260,2004-07-09,上海市浦东新区合庆镇青暮路281号,02168901803,200136,民建民营,高祎伽
333,浦东新区,合庆镇,上海浦东新区爱心养老公寓,320,2006-12-19,上海市奚阳路612-618号,（021）68919958,201201,民建民营,彭天明
334,浦东新区,合庆镇,上海青墩养老院,280,2015-07-06,上海市浦东新区合庆镇大星村二队,68910655,201201,民建民营,张超
335,浦东新区,沪东新村街道,上海浦东新区沪东社区敬老院,68,1998-10-09,上海市柳埠路142弄48号,58507411,200129,公建民营,吴滨
336,浦东新区,沪东新村街道,上海浦东新区沪东社区朱家门敬老院,115,2008-06-04,上海市浦东大道2970弄31号,50382074,200129,公建民营,吴滨
337,浦东新区,沪东新村街道,上海红日养老院有限公司,180,2019-04-29,上海市博兴路202-222号双1-2层、博兴路224号2层室、博兴路226-246号双1-2层、博兴路248弄1-4号301-308室,021-68407115,200129,民建民营,陈琦
338,浦东新区,花木街道,上海市黄浦区南京东路街道敬老院,60,1996-10-01,上海市浦东新区花木街道严桥路240弄10号,58393402,200125,公建民营,曹丽娟
339,浦东新区,花木街道,上海市黄浦区外滩街道敬老院,60,2001-02-01,上海市浦东新区花木街道严桥路240弄15号,58390312,200125,公建公营,张欣
340,浦东新区,花木街道,上海市浦东新区花木社区街道广洋养老院,142,2003-10-22,上海市灵山路2011弄59号,50769792-8409,200135,公建民营,孔祥跃
341,浦东新区,花木街道,上海浦东新区由由信福养老院,1251,2023-05-04,上海市下南路1288弄1-5号，华绣路399号，高科西路1988号,021-58800208,,民建民营,吴浪
342,浦东新区,花木街道,上海浦东新区申东颐养院,180,2006-11-16,上海市严桥路306号,50890306,200125,民建民营,占桂兰
343,浦东新区,花木街道,上海浦东新区花木敬老院,98,2003-10-22,上海市玉兰路58号,68452975,201204,公建民营,孔祥跃
344,浦东新区,惠南镇,上海市浦东新区听和养护院,245,,上海市浦东新区拱鸣路240号,,,,朱懿德
345,浦东新区,惠南镇,上海市浦东新区听康养护院,242,2020-04-02,上海市浦东新区惠南镇听康路62号,50888552,201399,公建民营,耿洪
346,浦东新区,惠南镇,上海市浦东新区惠南镇惠乐养老院,138,2010-10-15,上海市川南奉公路6168号,58270892,201301,公建公营,沈莉萍
347,浦东新区,惠南镇,上海市浦东新区惠南镇惠颐养护院,250,2010-04-13,上海市南祝路2700号,13524014485,201324,公建公营,沈小萍
348,浦东新区,惠南镇,上海市浦东新区惠南镇黄路养老院,82,2001-05-30,上海市黄路文卫路51号,58270061,210300,公建公营,沈莉萍
349,浦东新区,惠南镇,上海市浦东新区惠康养护院,264,2024-07-25,上海市浦东新区拱川路701号,,,公建民营,金振华
350,浦东新区,惠南镇,上海心悦养老院,54,2004-04-07,上海市浦东新区惠南镇南门路70号,58011019,201300,民建民营,黄娅青
351,浦东新区,惠南镇,上海浦东新区衡山人寿堂养护院,161,2022-01-18,上海市南园路28号1幢1号楼,58000000,,民建民营,冯强
352,浦东新区,金桥镇,上海市浦东新区金桥镇张桥养护院,139,1998-08-10,上海市佳林路82弄161号,58549557,201206,公建民营,张敏瑜
353,浦东新区,金桥镇,上海市浦东新区金桥镇申江养护院,252,2011-02-19,上海市浦东新区金桥镇申江路2480号,20248705,201206,公建民营,顾杰人
354,浦东新区,金杨新村街道,上海市浦东新区新金桥金杨养老院,290,2019-02-11,上海市浦东新区金杨新村街道博山东路629号,68800207,200136,公建民营,冯琍萍
355,浦东新区,金杨新村街道,上海市浦东新区碧云颐养院,120,2024-08-20,上海市浦东新区枣庄路567号9号楼,13524517135,,公建民营,高万杰
356,浦东新区,金杨新村街道,上海市浦东新区金杨新村街道灵山养老院,75,2004-12-22,上海市浦东新区金杨新村街道灵山路2011弄29号,50768761,200136,公建民营,陈琦
357,浦东新区,金杨新村街道,上海春馨养护院,150,2014-12-10,上海市浦东新区金杨新村街道浦东大道2507号,021-50273890,200136,民建民营,陈春良
358,浦东新区,金杨新村街道,上海浦东新区安达锦阳敬老院,88,2014-08-01,上海市浦东新区金杨新村街道枣庄路658弄11号,50716322,200136,民建民营,何敏
359,浦东新区,金杨新村街道,上海浦东新区美馨敬老院,73,2003-01-31,上海市浦东新区金杨新村街道金杨路660弄23号,50755222,200135,民建民营,曾丽馨
360,浦东新区,金杨新村街道,上海浦东新区金杨第二敬老院,135,2004-12-27,上海市龙居路180弄20号甲,58520957,200136,公建民营,陈琦
361,浦东新区,康桥镇,上海亲和源老年公寓,548,2008-03-19,上海市秀沿路2999弄,021-50883010,201319,民建民营,奚志勇
362,浦东新区,康桥镇,上海亲和源颐养院,200,2009-03-10,上海市宁怡,38256162,201319,民建民营,沈珺
363,浦东新区,康桥镇,上海市浦东新区康桥镇璞华养护院,460,2021-07-22,上海市秀海路197号,13391006078,,公建民营,吴滨
364,浦东新区,康桥镇,上海浦东新区康桥镇敬老院,99,2018-06-08,上海市浦东新区康桥镇拯安路55号,58132331,201318,公建公营,张国荣
365,浦东新区,老港镇,上海浦东新区老港敬老院,128,2007-04-10,上海市牛肚村,58052579,201302,公建公营,周怡
366,浦东新区,老港镇,上海龙港养护院,130,2014-03-31,上海市浦东新区老港镇老芦公路398号,021-68018668,201302,民建民营,马龙德
367,浦东新区,陆家嘴街道,上海市黄浦区千鹤老年公寓（乳山院）,163,2017-11-11,上海市乳山路139号,58883658,200120,公建公营,高来成
368,浦东新区,陆家嘴街道,上海市黄浦区第二社会福利院,120,1989-10-01,上海市浦东新区陆家嘴街道东园四路427号,58829963,200120,公建公营,陈一峰
369,浦东新区,陆家嘴街道,上海浦东新区陆家嘴敬老院,93,2017-06-09,上海市崂山二村48号,58922503,200120,公建民营,瞿文
370,浦东新区,南汇新城镇,上海市浦东新区临港养护院,560,2022-08-25,上海市紫娇路60号,58099990,,公建民营,张佳萍
371,浦东新区,南码头路街道,上海市黄浦区第一社会福利院,250,1984-02-14,上海市浦东新区南码头路街道东三街路55号,50936252,200125,公建公营,顾正财
372,浦东新区,南码头路街道,上海黄浦区兴林老年公寓,210,2007-05-16,上海市浦东新区南码头路街道南码头路52号,68389878,200125,民建民营,沈秋萍
373,浦东新区,南码头路街道,上海市浦东新区南码头路街道南园养老院,103,2002-04-26,上海市浦东新区南码头街道浦三路628弄18号,50779884,200125,公建民营,汤和芬
374,浦东新区,南码头路街道,上海市浦东新区南码头路街道南风养老院,80,2009-04-02,上海市东三里桥路160弄22号,58816242,200125,公建民营,张红翠
375,浦东新区,南码头路街道,上海浦东市南养老院,191,2009-04-02,上海市西三里桥路6号,021-58892115,200125,民建民营,梁红
376,浦东新区,南码头路街道,上海浦东新区民众敬老院,274,2005-12-09,上海市浦三路741弄28号,021-50771286,200125,民建民营,柏蓉
377,浦东新区,泥城镇,上海仁爱养护院,271,2005-03-01,上海市马五公路351号,58241976,201306,民建民营,林文娟
378,浦东新区,泥城镇,上海市浦东新区泥城镇云夏养老院,248,2024-03-26,上海市浦东新区泥城镇云夏路118号,021-58700010,,公建民营,邵震波
379,浦东新区,泥城镇,上海明家养护院,324,2003-11-03,上海市浦东新区泥城镇彭平东路1103弄76号,58241194,201306,民建民营,高明华
380,浦东新区,泥城镇,上海春雷养护院,200,2007-11-21,上海市彭镇艺华路1号,58241785,201307,民建民营,何春雷
381,浦东新区,浦兴路街道,上海伟业养护院,98,2019-01-16,上海市浦东新区浦兴路街道东陆路1268弄59-64号,18121339477,200120,民建民营,张建良
382,浦东新区,浦兴路街道,上海浦东新区浦兴敬老院,150,1999-12-01,上海市博兴路1208号,021-68956907,201206,公建民营,袁熙婕
383,浦东新区,浦兴路街道,上海浦东新区证大家园养老院,100,2020-12-15,上海市巨峰路209号,50930290,200129,民建民营,瞿文
384,浦东新区,浦兴路街道,上海浦东钱桥养老院有限公司,296,2019-02-15,上海市凌河路269号,60893000,200129,民建民营,李秀英
385,浦东新区,三林镇,陈娟英敬老院,220,1994-10-13,上海市杨新东路18号,021-58429240,200126,公建公营,蔡国强
386,浦东新区,三林镇,上海华安养老院,364,2018-05-25,上海市浦东新区三林镇云台路839号,58381870,200123,民建民营,赵建华
387,浦东新区,三林镇,上海市浦东新区三林镇常青养老院,225,2017-01-10,上海市浦东新区三林镇永泰路302弄16号,58410098,200124,公建民营,陆伟红
388,浦东新区,三林镇,上海浦东新区康德敬老院,50,2002-01-25,上海市浦东新区三林镇恒大路65号,68320016,200126,民建民营,孙忠元
389,浦东新区,三林镇,上海浦东新区日月星养老院,301,2010-12-10,上海市浦东新区三林镇顾全路100号,61349990,200125,民建民营,苏剑青
390,浦东新区,三林镇,上海浦东新区积孝敬老院,133,2002-10-16,上海市浦东新区三林镇杨高南路4501弄79号,50851606,200124,民建民营,袁孝萍
391,浦东新区,上钢新村街道,上海市浦东新区上钢养护院,648,2023-01-10,上海市浦东新区成山路66号,021-58832599,,公建民营,张宇鹏
392,浦东新区,上钢新村街道,上海市浦东新区上钢新村街道德州养老院,80,2011-08-19,上海市浦东新区上钢新村街道德州路255弄56号,33938908,200126,公建民营,欧阳雪梅
393,浦东新区,上钢新村街道,上海市浦东新区上钢新村街道耀华养老院,75,2012-09-17,上海市浦东新区上钢新村街道耀华路550弄2号,58476531,200126,公建民营,欧阳雪梅
394,浦东新区,上钢新村街道,上海浦东新区普安养老院,63,2005-12-13,上海市浦东新区上钢新村街道德州路380弄30号,58456891,200126,民建民营,赵梦怡
395,浦东新区,书院镇,上海佳家乐养老院,145,2006-07-10,上海市书塘路888号,58064388,201305,民建民营,朱正芳
396,浦东新区,书院镇,上海市浦东新区书院镇馨苑养老院,100,2001-05-30,上海市浦东新区书院镇老芦公路1412号,58061105,201305,公建公营,周翠华
397,浦东新区,书院镇,上海邻港养护院,300,2011-10-26,上海市浦东新区书院镇老芦公路1423号,58069799,201305,民建民营,黄飞
398,浦东新区,唐镇,上海浦东新区新唐镇敬老院,727,2006-01-10,上海市浦东新区唐镇创新中路73号,58967148,201203,公建公营,梅忠其
399,浦东新区,塘桥街道,上海市浦东新区塘桥养护院,240,2020-05-07,上海市徐家弄路99号,021-68760090,200127,公建民营,李林
400,浦东新区,塘桥街道,上海琻锦颐养院有限公司,248,2017-03-20,上海市浦东新区塘桥街道东环龙路299号,021-68680003,200126,民建民营,张惠丰
401,浦东新区,塘桥街道,上海申养滨江望年荟养老院有限公司,82,2022-01-19,上海市小南码头路5号33幢,021-68589992,,民建民营,朱春玲
402,浦东新区,万祥镇,上海市浦东新区万祥镇乐龄养老院,50,2001-05-30,上海市新路村果园669号,58046345,201313,公建公营,乔迎春
403,浦东新区,潍坊新村街道,上海北张家浜养老服务有限公司王家宅养老院分公司,82,,上海市浦东新区北张家浜路168弄2号楼,,,,徐露
404,浦东新区,新场镇,上海市浦东新区新场镇坦直养老院,119,2001-05-30,上海市浦东新区新场镇坦直下盐路89号,68150038,201314,公建民营,陈世平
405,浦东新区,新场镇,上海市浦东新区新场镇石笋养老院,127,2001-05-10,上海市浦东新区新场新环南路288号,58171080,201314,公建民营,周敏
406,浦东新区,宣桥镇,上海黄浦区老西门街道海阳敬老院,160,2012-12-11,上海市浦东新区宣桥镇光明村495号,58032208,201203,民建民营,许琳英
407,浦东新区,宣桥镇,上海浦东新区三灶敬老院,153,2001-05-30,上海市浦东新区宣桥镇三灶北街54号,58036308,201300,公建公营,施莲琴
408,浦东新区,宣桥镇,上海浦东新区香树湾养护院,350,2022-02-14,上海市六奉公路5033弄1号2层、2号2层至4层、5号1层至5层,58038999,,民建民营,黄国平
409,浦东新区,宣桥镇,上海金龙养护院,127,2005-05-01,上海市光明村金光333号,18916029553,201314,民建民营,沈小妹
410,浦东新区,洋泾街道,上海金枫养老院,70,2002-09-28,上海市张杨路1734弄21号,021-68534485,200135,民建民营,戎煜
411,浦东新区,张江镇,上海光启养老院,175,2003-04-01,上海市浦东新区张江镇居里路469号,50921156,201203,民建民营,徐圣洁
412,浦东新区,张江镇,上海市浦东新区张江镇孙桥养老院,250,2003-08-04,上海市横沔江路264号,58570405,201203,公建公营,刘妹妹
413,浦东新区,张江镇,上海市浦东新区张江镇环东养老院,80,2018-11-19,上海市浦东新区张江镇三灶路1101号,021-58579018,201210,公建民营,刘妹妹
414,浦东新区,张江镇,上海市浦东新区张江镇顺和养老院,69,2010-01-12,上海市顺和路139弄5号,021-50724484,201210,公建公营,刘妹妹
415,浦东新区,周家渡街道,上海市黄浦区千鹤老年公寓,155,1997-09-18,上海市浦东新区周家渡街道昌里路120号,17321233865,200126,公建公营,高来成
416,浦东新区,周家渡街道,上海黄浦区天伦敬老院,118,2007-10-02,上海市浦东新区周家渡街道成山路248弄34号,38800046,200126,民建民营,曲敬艺
417,浦东新区,周家渡街道,上海市浦东新区周家渡养护院,342,2020-06-22,上海市浦东新区周家渡街道邹平路58号,58890881,200123,公建民营,张宇鹏
418,浦东新区,周家渡街道,上海市浦东新区周家渡街道昌里养老院,126,2007-05-18,上海市浦东新区周家渡街道昌里东路80弄61号,58457058,200126,公建民营,吴海萍
419,浦东新区,周浦镇,上海市浦东新区周浦镇长乐养护院,529,2001-05-30,上海市康沈路2186号,58110735,201318,公建民营,袁熙婕
420,浦东新区,周浦镇,上海松福养护院,148,2003-05-09,上海市浦东新区周浦镇周祝公路1529号,58151522,201321,民建民营,钱杰
421,浦东新区,周浦镇,上海民乐养护院,80,1995-12-11,上海市浦东新区周浦镇周东路508弄108号,68118654,201318,民建民营,张云飞
422,浦东新区,周浦镇,太平养老产业管理有限公司上海梧桐人家养老院分公司,288,2019-07-08,上海市忘忧路100弄14号,60619016,201315,民建民营,鲁昌
423,浦东新区,祝桥镇,上海市浦东新区祝桥镇光明养护院,330,2007-07-09,上海市浦东新区祝桥镇祝西村8组,021-68098121,201323,公建民营,姚舟琦
424,浦东新区,祝桥镇,上海康颐养护院,70,2004-04-08,上海市浦东新区祝桥镇星火村小桥188号,021-58096176,201323,民建民营,周红莲
425,浦东新区,祝桥镇,上海浦东新区机场第一敬老院,200,2003-09-12,上海市江镇社区新东路5号,58931236,201202,公建民营,黄杰青
426,浦东新区,祝桥镇,上海浦东新区机场第二敬老院,418,1985-03-11,上海市施湾水闸南路200号,68966766,201202,公建公营,邱银花
427,浦东新区,祝桥镇,上海浦东新区祝桥敬老院,231,2001-05-30,上海市浦东新区祝桥镇新东村竞新11组190号,68261812,201323,公建公营,潘进龙
428,浦东新区,祝桥镇,上海海欣养护院,50,2021-02-03,上海市先进村9组156号,13818977857,201323,民建民营,唐军
429,普陀区,,上海中环逸仙敬老院,364,2017-11-02,上海市普陀区万里街道富水路712号,36351826,200333,民建民营,冯  强
430,普陀区,,上海普陀区宁川养老院,459,2024-03-01,上海市宁川路53弄1号,021-52659999,0,公建民营,胡琬露
431,普陀区,,上海普陀区真如颐天年养老院,80,2004-04-01,上海市真北路2904弄56号,52840427,200333,民建民营,汪奇超
432,普陀区,曹杨新村街道,上海普陀区云集曹杨养老院,96,2018-08-28,上海市普陀区曹杨新村街道梅岭北路93号,62127311,200062,民建民营,朱玲群
433,普陀区,曹杨新村街道,上海普陀区曹安敬老院,130,2018-06-27,上海市怒江路600弄3号,62600023,200333,公建公营,李文玲
434,普陀区,甘泉路街道,上海普陀区云集子长养老院,80,2018-10-26,上海市子长路426号,56358590,200065,民建民营,朱玲群
435,普陀区,甘泉路街道,上海普陀区甘泉宏利敬老院,120,2005-03-29,上海市新村路349弄38-40号,56948076,200065,公建公营,王瑞英
436,普陀区,甘泉路街道,上海普陀区甘泉路街道合阳老年公寓,82,1997-10-01,上海市延长西路40弄42号,56075077,200065,公建公营,刁丽华
437,普陀区,甘泉路街道,上海枫景养老院有限公司,76,2020-09-23,上海市普陀区甘泉路街道泾惠路/弄20号,,200065,民建民营,胡辉
438,普陀区,甘泉路街道,上海毅韬快乐养老院,120,2016-07-01,上海市普陀区甘泉路街道黄陵路159号,65872212,200065,民建民营,刘建敏
439,普陀区,甘泉路街道,上海颐和爱心敬老院,175,2011-01-28,上海市普陀区甘泉路街道延长西路/弄172号,36397118,200065,民建民营,干雪菲
440,普陀区,石泉路街道,上海云集养老院,120,2009-10-01,上海市普陀区石泉路街道同泰新631,021-52906522,200061,民建民营,朱玲群
441,普陀区,石泉路街道,上海普陀区信仪敬老院,125,2003-12-25,上海市信仪新村12号,62146636,200061,公建公营,张雯静
442,普陀区,桃浦镇,上海市普陀区白丽敬老院,125,2019-08-06,上海市红棉路311弄48号,66264592-602或603,200331,公建民营,徐一忞
443,普陀区,桃浦镇,上海普陀区康嘉养老院,239,2024-03-11,上海市连亮路29号,18001721769,,公建民营,徐一忞
444,普陀区,桃浦镇,上海普陀区桃浦镇社会福利院,160,2007-09-01,上海市普陀区桃浦镇靖边199弄19号,61495602,200333,公建民营,徐一忞
445,普陀区,桃浦镇,上海普陀区桃浦镇第一养老院,500,2017-10-05,上海市普陀区桃浦镇真南路822弄432号,66076060,200331,公建民营,许美芳
446,普陀区,桃浦镇,上海普陀合悦家养老服务有限公司,628,2024-09-20,上海市普陀区祁连山路460弄25号,021-66279999,,民建民营,黄士杰
447,普陀区,桃浦镇,上海长寿家园桃浦九村养老院,260,2016-12-28,上海市普陀区桃浦镇竹柳路70号,18116097262,200063,公建民营,边一行
448,普陀区,万里街道,上海普陀区万里臻华颐养院,378,2023-04-19,上海市真华路66号、70号,021-51333277,,民建民营,张颖
449,普陀区,宜川路街道,上海宜川养老院,459,2014-10-01,上海市远景路69号,62736686,200065,公建民营,苏少明
450,普陀区,宜川路街道,上海普陀区宜川路街道泰山敬老院,120,2003-03-01,上海市泰山三村52号,56095362,200065,民建民营,刘正荣
451,普陀区,宜川路街道,上海普陀区宜福敬老院,160,2005-04-01,上海市普陀区宜川路街道宜川六村/弄78号,13331831092,200065,民建民营,刘建华
452,普陀区,宜川路街道,上海泾惠敬老院,120,2016-11-01,上海市交通路2701弄27号,56947530,200065,民建民营,刘正荣
453,普陀区,长风新村街道,上海市普陀区社会福利院,234,1991-07-01,上海市枣阳路515,52999065,200062,公建公营,凌峰
454,普陀区,长风新村街道,上海市普陀城怡养护院,500,2023-05-06,上海市枣阳路251弄96号,56500522,,民建民营,嵇栋
455,普陀区,长风新村街道,上海普陀区康养中心,213,2020-03-17,上海市丹巴路586弄15号、16号,021-53309090,200333,民建民营,王喻璇
456,普陀区,长风新村街道,上海普陀区白玉敬老院,106,2017-10-16,上海市普陀区长风新村街道宁夏路白玉新村114号,62225323,200063,公建公营,姚正
457,普陀区,长风新村街道,上海普陀区长风敬老院,70,1996-01-04,上海市普陀区长风新村街道长风二145,62225826,200062,公建民营,沈义兴
458,普陀区,长风新村街道,上海普陀区颐长敬老院,97,2018-09-21,上海市普陀区长风新村街道枣阳路251弄99号,62236277,200333,公建民营,张颖
459,普陀区,长寿路街道,上海普陀区申养镇坪路望年荟养老院,226,2018-11-19,上海市弄2020号,67337337,200063,民建民营,朱春玲
460,普陀区,长寿路街道,上海长寿家园养老院,52,2017-11-03,上海市宜昌路555号4-5楼,31169927,200060,民建民营,边一行
461,普陀区,长征镇,上海普陀区云集新曹杨颐养院,124,2019-10-01,上海市中江路1070弄69号,52651858,200333,民建民营,朱玲群
462,普陀区,长征镇,上海普陀区清峪养老院,176,1999-01-01,上海市清峪路130弄57号,62063108,200333,公建民营,王喻璇
463,普陀区,长征镇,上海百达敬老院,230,2017-11-10,上海市真北路1101弄18号,52790090,200333,民建民营,许美芳
464,普陀区,长征镇,上海美源养老院,320,2019-04-24,上海市同普路977号2号门,62163122,200333,民建民营,周知
465,普陀区,长征镇,太保家园·上海普陀国际康养社区,288,2023-08-23,上海市泾阳路459号,021-52710988,,民建民营,杨旭东
466,普陀区,真如镇街道,上海市普陀区真如镇敬老院,150,2017-11-03,上海市真北支路263弄4号,62642351,200333,公建民营,边一行
467,普陀区,真如镇街道,上海普陀区第一老年福利院,408,2021-05-27,上海市三源路180号,62666682,0,公建民营,王喻璇
468,青浦区,白鹤镇,上海青浦区白鹤镇养护院,432,2019-09-24,上海市青浦区白鹤镇程鹤路399号,39291800,201709,公建民营,侯诗敏
469,青浦区,华新镇,上海市青浦区华新镇凤溪社区养老院,55,2017-12-13,上海市青浦区华新镇凤雅路906号,59773238,201708,公建民营,郇建冰
470,青浦区,华新镇,上海市青浦区华新镇康华养护院,324,2017-11-16,上海市青浦区华新镇华强街495号,59794395,201708,公建民营,王晖
471,青浦区,金泽镇,上海青浦区金泽镇水云涧养护院,300,2023-10-23,上海市商榻北路310号,18321279707,,公建民营,时灿
472,青浦区,练塘镇,上海市青浦区练塘镇九峰养护院,566,2018-09-05,上海市青浦区练塘镇张联村钟联500号,59295002,201715,公建民营,钱海平
473,青浦区,夏阳街道,上海中福会养老院,270,2007-05-25,上海市青浦区夏阳街道公园东路1126号,69719831,201700,民建民营,许颖
474,青浦区,夏阳街道,上海市青浦区夏阳街道安康养护院,129,2012-07-12,上海市青浦区夏阳街道王仙村588号,13601858699,201700,民建民营,邬亮
475,青浦区,夏阳街道,上海青浦区冉升塔湾新天地养老院,248,2007-04-22,上海市沪青平公路5251号,59721990,201700,民建民营,唐仁妹
476,青浦区,夏阳街道,上海青浦区夏阳街道养护院,541,2020-08-05,上海市秀泽路653号,021-69830500,201700,公建民营,高伟华
477,青浦区,香花桥街道,上海市青浦区亚莱菲养护院,565,2010-04-20,上海市北青公路普光路209号,021-59705068,201707,民建民营,江丁山
478,青浦区,香花桥街道,上海市青浦区香花桥街道大盈养护院,72,1999-06-09,上海市青赵路5701号,59221268,201712,公建公营,王瑞
479,青浦区,香花桥街道,上海盈康养老院,335,2010-09-16,上海市大盈路488号,18049901373,201712,民建民营,秦士新
480,青浦区,香花桥街道,上海青浦区香花苑养老院,181,2010-07-01,上海市青浦区香花桥街道华青路1099号,13818696997,201700,民建民营,陈鑫
481,青浦区,徐泾镇,上海青浦区徐泾镇养护院,852,2021-03-24,上海市乐高路59号,021-69830321,,公建民营,侯诗敏
482,青浦区,盈浦街道,上海青浦区仁泽盈浦养护院,590,,上海市青浦区青赵公路809弄6-7号,,,,李益
483,青浦区,赵巷镇,上海青浦区仁泽赵巷养护院,345,2019-11-15,上海市芦沈路59号,59755128,201703,公建民营,金品昌
484,青浦区,赵巷镇,上海青浦区崧泽养护院,309,2023-11-23,上海市青浦区崧淀二路22号,021-59813869,,公建民营,金品昌
485,青浦区,赵巷镇,上海青浦区赵巷崧华养护院,204,2024-05-30,上海市华科东路36-1号,18049922052,,公建民营,江伟
486,青浦区,重固镇,上海青浦区重固九如城福泉养护院,298,2020-05-05,上海市芦花浜路29号,69726011,201706,公建民营,郇建冰
487,青浦区,朱家角镇,上海垦森凯养老院,107,2023-04-05,上海市青浦区淀山湖大道3388弄1-25号2幢2-6层,021-59253328,,民建民营,程娟
488,青浦区,朱家角镇,上海市青浦区朱家角镇养护院,537,2019-10-31,上海市沈太路85号,021-59830702,201714,公建民营,许彩英
489,青浦区,朱家角镇,上海澳维养老院,158,2017-08-09,上海市青浦区朱家角镇康业路888弄72号,17317686979,201714,民建民营,沈志强
490,青浦区,朱家角镇,上海青浦区淀山湖福利院,850,2020-12-04,上海市青浦区东圩河路66号,51212160,,公建民营,秦英
491,松江区,车墩镇,上海市松江华阳敬老院,200,2017-09-22,上海市环阳支路6弄20号,02157774802,201611,民建民营,金国青
492,松江区,车墩镇,上海市松江车墩敬老院,228,2018-10-30,上海市松江区车墩镇长溇村160号,57602761,201611,公建民营,吴佳超
493,松江区,洞泾镇,上海市松江洞泾敬老院,156,2023-10-19,上海市松江区洞泾镇沪松公路3715弄9号,57671608-8019,201619,公建公营,王春琴
494,松江区,方松街道,上海松江区华康养老院,1000,2023-03-07,上海市松江区南期昌路600号,37688899,,公建民营,张婕
495,松江区,方松街道,上海松江方松街道敬老院,150,2017-10-05,上海市三新北路1800弄18号楼,37025500,201620,公建民营,王斌
496,松江区,广富林街道,上海市松江社会福利院,560,2017-09-18,上海市龙腾路1155号,57700888,201620,公建公营,杨霞静
497,松江区,广富林街道,泰康之家申园（上海）养老服务有限公司,2664,2015-12-25,上海市松江区广轩路298号，299号1幢1-14 层、2幢、3幢1-14层、6幢1-14层,13816701761,201600,民建民营,邱建伟
498,松江区,九里亭街道,上海松江九里亭街道燕喜雁居养老院,170,2024-09-01,上海市松江区滨亭路256弄1-4号,13052328230,,公建民营,朱辉
499,松江区,九亭镇,上海唐人百老汇福利院,600,2017-10-21,上海市龙高路815号,021-67626005,201615,民建民营,唐世隆
500,松江区,九亭镇,上海松江区九亭镇福利院,190,2002-04-25,上海市九新公路811弄99号原田荘路,57639583,201615,公建民营,季兰英
501,松江区,泖港镇,上海市松江泖港敬老院,156,2013-02-28,上海市新乐路1号,021-57861482,201607,公建公营,蒋英
502,松江区,泖港镇,上海松江区厚德养老院,150,2018-02-08,上海市松江区泖港镇五厍支路27号,57871693,201606,民建民营,沈维芳
503,松江区,佘山镇,上海市松江佘山敬老院,250,2018-04-17,上海市细林路9号,57659578,201602,公建民营,赵曙光
504,松江区,佘山镇,纵横颐享（上海）养老院,71,,上海市松江区佘山镇佘苑南路358弄1号楼,,,,王勇
505,松江区,石湖荡镇,上海市松江石湖荡敬老院,130,2001-07-09,上海市松江区石湖荡镇金胜村新闸313号,021-57841318,201617,公建公营,陆勤芳
506,松江区,泗泾镇,上海松江泗泾国松康养养护院,1030,2021-03-17,上海市泗通路411号,57855083,,公建民营,徐亚峰
507,松江区,泗泾镇,上海松江泗泾新凯敬老院,164,2021-02-04,上海市泗凯路535号,021-57663367,,公建民营,王斌
508,松江区,小昆山镇,上海市松江小昆山敬老院,400,2015-10-30,上海市小昆山镇,13641973380,201616,公建民营,杨兵
509,松江区,新浜镇,上海市松江新浜敬老院,216,2017-08-16,上海市新浜街道,57891939,201605,公建民营,王秀娟
510,松江区,新桥镇,上海黄浦区华朝老年公寓,59,2014-03-13,上海市松江区新桥镇明兴路595弄87号,57689462,201600,民建民营,邱国华
511,松江区,新桥镇,上海黄浦区大众养老院,500,2014-01-01,上海市申南二路131号,67648400,201612,民建民营,陆晓茸
512,松江区,新桥镇,上海市松江新桥敬老院,308,2017-09-12,上海市申浜路288号,57642895,201612,公建民营,唐益仙
513,松江区,叶榭镇,上海市松江叶榭敬老院,428,2017-09-20,上海市张泽社区,15821694716,201608,公建民营,金文芳
514,松江区,叶榭镇,上海蓝色港湾福利院,400,2003-11-03,上海市松江区叶榭镇张泽辕门路111号,57887242,201608,民建民营,俞金章
515,松江区,永丰街道,上海秀野养老服务有限公司,75,2019-11-29,上海市永丰路20号,57610679,201600,民建民营,杨蓉
516,松江区,永丰街道,上海市第四社会福利院,550,1980-07-29,上海市永隆路788号,57822397,201600,公建公营,沈翠翠
517,松江区,岳阳街道,上海松江岳阳街道养老院,80,2017-09-07,上海市松江区岳阳街道松汇中路401弄8号,37785380,201600,公建民营,王志朋
518,松江区,中山街道,上海松江中山街道燕喜雁居敬老院,120,2021-05-20,上海市沪松路275号,13061698293,,民建民营,朱辉
519,松江区,中山街道,上海松江亲清养老院,280,2011-03-01,上海市松江区中山街道辰花路387号,57675918,201619,民建民营,朱红
520,徐汇区,漕河泾街道,上海乐缘养老院,198,2012-09-01,上海市宾阳路36号,13052470990,200235,公建民营,包勍颀
521,徐汇区,枫林路街道,上海徐汇区枫林街道第二敬老院,110,2005-10-01,上海市徐汇区枫林路街道龙华路3208弄32号,54590997,200232,公建民营,蒋跃红
522,徐汇区,枫林路街道,上海市第一社会福利院,300,1964-01-01,上海市宛平南路465号,31758006,200032,公建公营,沈健
523,徐汇区,虹梅路街道,上海徐汇区虹梅养老院,80,2007-08-22,上海市徐汇区虹梅路街道虹梅路0弄1501号,54481263,200233,民建民营,潘玉贤
524,徐汇区,华泾镇,上海凯健华展养老院有限公司,86,2011-07-01,上海市徐汇区华泾镇华展东路33号,（021）5433-7768,200231,民建民营,邵明
525,徐汇区,华泾镇,上海市徐汇区第三老年福利院,200,2014-10-01,上海市徐汇区华泾镇华发路210号,34906969,200231,公建民营,柯维忠
526,徐汇区,华泾镇,上海徐汇区乐龄汇养老院,1568,2023-12-08,上海市徐汇区孝民路109号,021-33689019,,公建公营,楼似皎
527,徐汇区,华泾镇,上海徐汇区华汇老年福利院,750,2017-09-01,上海市徐汇区华泾镇银都路303号,34201506,200231,公建民营,张莉颖
528,徐汇区,华泾镇,上海徐汇区永康养老院,70,1998-01-01,上海市徐汇区华泾镇华发路100弄20~21号,64962525,200231,公建民营,王荣荣
529,徐汇区,华泾镇,上海徐汇区源梦颐养院,108,2014-12-01,上海市龙吴路2577号,54413727,200231,民建民营,杨嵘
530,徐汇区,康健新村街道,上海市徐汇区养老事业发展中心（上海市徐汇区社会福利院）一分部,180,1996-10-01,上海市徐汇区康健新村街道虹漕南601,54180600,200233,公建公营,姜洪英
531,徐汇区,康健新村街道,上海徐汇区康健敬老院,88,2006-12-01,上海市徐汇区康健新村街道桂林西街30弄41号,54187600,200233,民建民营,潘婕
532,徐汇区,康健新村街道,上海徐汇区新乐养老院,190,2003-05-01,上海市徐汇区康健新村街道江安88,54197284,200233,民建民营,徐东浩
533,徐汇区,凌云路街道,上海市徐汇区养老事业发展中心（上海市徐汇区社会福利院）,312,2001-08-01,上海市徐汇区凌云路街道龙州路600号,021-54290069,200237,公建公营,姚威
534,徐汇区,凌云路街道,上海徐汇区兰公馆老年公寓,168,2013-09-01,上海市徐汇区凌云路街道天等路430弄39号,64969077,200237,民建民营,张莉颖
535,徐汇区,凌云路街道,上海徐汇区梅陇敬老院,190,2008-12-01,上海市徐汇区凌云路街道虹梅南路126弄55号,64768188,200237,民建民营,周海洋
536,徐汇区,龙华街道,上海徐汇区金色港湾龙华颐养院,101,2006-06-01,上海市徐汇区龙华街道龙南三村85号,54091067,200232,民建民营,谢荣娣
537,徐汇区,田林街道,上海圣耐维颐养院有限公司,148,2020-09-10,上海市柳州路374弄12号,021-54979988,200233,民建民营,汤钧
538,徐汇区,田林街道,上海申养钦州路望年荟养老院,100,2018-12-28,上海市徐汇区田林街道钦州路828号,021-54660655,200233,民建民营,刘珂
539,徐汇区,斜土路街道,上海市徐汇区龙华街道怡乐家园养护院,237,2018-03-01,上海市徐汇区斜土路街道丰谷路180弄101号,54482528,200232,民建民营,柯维忠
540,徐汇区,斜土路街道,上海徐汇区悦颐养老院,200,2018-04-23,上海市徐汇区斜土路街道茶陵路76号,53555218,200032,公建民营,陈云晖
541,徐汇区,斜土路街道,上海徐汇区斜土街道第二敬老院,63,2006-10-01,上海市徐汇区斜土路街道大木桥路江南一村600弄54,64181132,200032,公建民营,孙颖
542,徐汇区,斜土路街道,上海徐汇区日晖养老院,200,2007-10-01,上海市斜土街道,64042727,200032,民建民营,崔明
543,徐汇区,徐家汇街道,上海徐汇区徐家汇街道敬老院,128,2017-10-03,上海市徐汇区徐家汇街道凯旋一村21号,64077922,200030,公建民营,曹晓薇
544,徐汇区,徐家汇街道,上海徐汇区颐祥养老院,53,1996-06-01,上海市徐汇区徐家汇街道斜土路2590弄7号,64381396,200030,民建民营,张荣康
545,徐汇区,长桥街道,上海徐汇区长桥街道敬老院,139,2003-08-14,上海市徐汇区长桥街道罗城路651弄65号,54112932,200237,公建民营,李俊霞
546,徐汇区,长桥街道,上海徐汇区长桥街道第二敬老院,60,1986-08-01,上海市徐汇区长桥街道长桥四村54,64103932,200231,公建民营,孙婷
547,徐汇区,长桥街道,上海徐汇区阳光养老院,136,2005-12-01,上海市徐汇区长桥街道平福19,64556813,200231,民建民营,季冬青
548,杨浦区,,上海杨浦区长海路街道敬老院,140,1999-12-01,上海市杨浦区五角场镇翔殷路505弄9号,55223596,200433,公建民营,边一行
549,杨浦区,大桥街道,上海杨浦区大桥社区老年公寓,235,2013-01-03,上海市平凉路1759号,51213318,200090,公建民营,张伟新
550,杨浦区,大桥街道,上海杨浦区怡百康养老院,160,2010-05-31,上海市双阳支路19号,65181362,200090,民建民营,周鲲
551,杨浦区,大桥街道,上海杨浦区惠仁养老院,77,1998-04-30,上海市杭州路107弄20号,021--65432029,200082,民建民营,郭强
552,杨浦区,大桥街道,上海杨浦区红枫家园养老院,82,2020-05-28,上海市临青路377号二层,021-65188501,200090,民建民营,樊玉光
553,杨浦区,大桥街道,上海杨浦区鑫光养老院,100,2008-01-30,上海市宁武路622号,65691698,200082,民建民营,曹振光
554,杨浦区,大桥街道,上海舒雅园敬老院,112,2011-12-01,上海市大桥街道,65397809,200090,民建民营,郭甫强
555,杨浦区,定海路街道,上海市杨浦馨安老年公寓,146,2021-09-05,上海市内江路海尚大厦6号、6-1号6-2号,18901710337,,民建民营,赵建华
556,杨浦区,定海路街道,上海杨浦区宏运敬老院,100,1998-12-31,上海市军工路400弄20号,021-65685539,200090,民建民营,陈解鸣
557,杨浦区,定海路街道,上海杨浦区海康敬老院,103,2010-01-20,上海市隆昌路8号,65688906,200090,民建民营,刘林娣
558,杨浦区,定海路街道,上海杨浦区爱光敬老院,140,2006-10-30,上海市波阳路301号,65695745,200090,民建民营,邹文滢
559,杨浦区,定海路街道,上海阳光养老院,210,1999-06-01,上海市定海路150号,65688038,200090,民建民营,刘彩华
560,杨浦区,江浦路街道,上海杨浦区康善养老院,92,2019-04-10,上海市杨浦区江浦路街道辽源西路0弄107号,13795482856,200092,民建民营,张娟
561,杨浦区,江浦路街道,上海杨浦区星辰颐养院,162,2025-01-10,上海市杨浦区辽源西路141号,,,民建民营,沈柏宇
562,杨浦区,江浦路街道,上海遐福养老院有限公司,258,2017-11-28,上海市杨浦区辽源西路230弄18号,021-55969696,200092,民建民营,王朝晖
563,杨浦区,控江路街道,上海杨浦区快乐靖宇养老院,133,2019-04-11,上海市控四二居委,18917181778,200093,民建民营,王海水
564,杨浦区,控江路街道,上海杨浦区控江路街道敬老院,50,2017-08-04,上海市杨浦区控江路街道凤城三村31号,65135287,200093,公建民营,毛莉莉
565,杨浦区,控江路街道,上海杨浦区新宇敬老院,50,1999-08-02,上海市沧州路180弄5号,55099737,200093,民建民营,沈小萍
566,杨浦区,控江路街道,上海杨浦区红日养老院,250,2006-07-03,上海市双阳路330号,55808755,200090,民建民营,陈琦
567,杨浦区,平凉路街道,上海市杨浦区社会福利院第一分院,295,2018-04-27,上海市杨浦区平凉路街道怀德路802号,65485013转8102,200082,公建公营,乔毅皓
568,杨浦区,平凉路街道,上海市杨浦香槟和熹会颐养院,306,2023-10-24,上海市江浦路321号,021-65059998,,民建民营,郭延洲
569,杨浦区,平凉路街道,上海杨浦区夕阳美阁养老院,191,2019-02-01,上海市杨浦区平凉路街道济宁路488号,18621808386,200082,民建民营,叶江海
570,杨浦区,平凉路街道,上海杨浦区新世纪养老院,80,2017-04-18,上海市兰州路390号,55217835,200082,民建民营,方秀兰
571,杨浦区,四平路街道,上海市杨浦区四平路街道敬老院,80,2007-11-01,上海市铁岭路50弄63号,55965905,200092,公建民营,沈潇
572,杨浦区,四平路街道,上海市杨浦长寿家园密云养老院,283,2022-01-27,上海市杨浦区密云路358号,,,民建民营,李碎希
573,杨浦区,五角场街道,上海杨浦区世纪养老院,100,2001-11-22,上海市政修路270号,65100875,200433,民建民营,郑霄
574,杨浦区,五角场街道,上海杨浦区市东敬老院,350,2017-08-28,上海市武东路55号,55660682   65130605,200433,民建民营,吴素倩
575,杨浦区,五角场街道,上海杨浦区政民敬老院,50,2000-01-03,上海市五角场街道,65113995,200433,民建民营,董小平
576,杨浦区,五角场镇,上海信养养老服务有限公司杨浦信澜养老院分公司,163,2022-09-30,上海市世界路203号,65501066,,民建民营,魏松
577,杨浦区,五角场镇,上海市杨浦区人和养老院,70,,上海市杨浦区市京一村7号,,,,潘赛华
578,杨浦区,五角场镇,上海杨浦区和禾和养老院,220,2019-03-26,上海市长海路街道,65101877,200433,民建民营,谈志刚
579,杨浦区,五角场镇,上海杨浦区新光敬老院,50,1998-11-28,上海市佳木斯路258号,13761628400,200433,民建民营,李韵华
580,杨浦区,新江湾城街道,上海杨浦区福象新江湾城老年福利院,300,2017-11-02,上海市政和路77号,021-65801323,200438,公建公营,鲁昌
581,杨浦区,新江湾城街道,上海杨浦区红日江湾养老院,153,,上海杨浦区新江湾城街道清流环二路351号,,,,吴旦
582,杨浦区,延吉新村街道,上海怡安养老院,170,2015-07-31,上海市松花江路327-1临,35360379,200093,民建民营,褚志兰
583,杨浦区,延吉新村街道,上海杨浦区康源养老院,185,2017-07-25,上海市控江七村,65507766,200093,民建民营,郑霄
584,杨浦区,延吉新村街道,上海杨浦区延吉街道养老院,209,2010-05-03,上海市杨浦区延吉新村街道控江路0弄600号,65485083,200093,公建民营,陈琦
585,杨浦区,延吉新村街道,上海杨浦区延吉街道耆乐园养老院,300,2017-08-01,上海市周家嘴路3531号,55082773,200093,民建民营,陈航
586,杨浦区,延吉新村街道,上海杨浦区水丰敬老院,50,2017-11-27,上海市控江路680弄12号,65300324,200093,民建民营,莫金燕
587,杨浦区,殷行街道,上海市杨浦区宏原敬老院,50,1999-12-01,上海市杨浦区殷行街道民星二村37号,021-65578577,200438,民建民营,周其萍
588,杨浦区,殷行街道,上海市杨浦区殷行街道敬老院,120,1999-12-01,上海市开鲁路286弄7号,65748197，65741211,200438,公建民营,蔡巍娅
589,杨浦区,殷行街道,上海杨浦区中原敬老院,50,1999-12-30,上海市民星二村28号,65577472,200438,民建民营,王素琴
590,杨浦区,殷行街道,上海杨浦区久安养老院,538,2019-09-27,上海市国伟路300号E座（南侧）,55215676,200438,民建民营,赵建华
591,杨浦区,殷行街道,上海杨浦区夕阳红敬老院,50,1999-12-01,上海市市光四村106号,65321753,200438,民建民营,沈小萍
592,杨浦区,殷行街道,上海杨浦区寿星敬老院,50,1995-01-25,上海市殷行路470弄52号,65051347,200438,民建民营,易静芳
593,杨浦区,殷行街道,上海杨浦区民星第二敬老院,105,1999-12-30,上海市杨浦区殷行街道市光二村89号,65585153,200438,民建民营,马明素
594,杨浦区,殷行街道,上海杨浦区长恒养老院,85,2000-08-01,上海市杨浦区殷行街道殷行一村9号,65329343,200438,民建民营,黄满成
595,杨浦区,殷行街道,上海欣益养老院有限公司,508,2018-04-11,上海市民星二村居委会,65566087,200438,公建民营,胡位东
596,杨浦区,长白新村街道,上海市杨浦区社会福利院,820,1988-09-01,上海市杨浦区长白新村街道松花江路55弄05号,65483285,200093,公建公营,乔毅皓
597,杨浦区,长白新村街道,上海杨浦区汇晨长白老年福利院,444,2018-03-30,上海市民治路15号,65686670,200093,公建民营,张黎明
598,杨浦区,长白新村街道,上海杨浦区沁园春敬老院,50,2005-05-01,上海市长白,55823042,200093,民建民营,丁美珍
599,杨浦区,长白新村街道,上海杨浦区长白新村街道长馨养老院,120,2019-02-25,上海市杨浦区安图路18弄39号,55959066,200093,公建民营,蔡惠英
600,长宁区,,上海长宁颐养第四养老院,110,2008-03-01,上海市闵行区华漕镇中华美路60弄38号,021-62202062,201106,公建民营,高莉
601,长宁区,程家桥街道,上海人寿堂颐养院有限公司,248,2019-06-19,上海市长宁区程家桥街道虹桥路2302号6幢B1、7-9层,62177333、52063333,,民建民营,冯强
602,长宁区,程家桥街道,上海长宁区逸仙程桥敬老院,132,2010-05-01,上海市哈密路2008号,62629482,200336,民建民营,冯强
603,长宁区,程家桥街道,上海长宁区逸仙西郊养老院,48,2019-05-14,上海市虹桥路2302号7幢,52063333,200030,民建民营,冯强
604,长宁区,虹桥街道,上海虹桥敬老院,43,1994-12-01,上海市中山西路1030弄10号,62087012,200051,公建民营,朱秀君
605,长宁区,虹桥街道,上海长宁万宏悦馨第二养老院,51,2023-03-31,上海市虹桥路1024弄4号2层,62788803,,民建民营,陈庆
606,长宁区,虹桥街道,上海颐养第三养老院,73,2018-02-01,上海市长宁区长顺路55号,52821819,200051,民建民营,黄艳
607,长宁区,华阳路街道,上海华阳敬老院,113,1987-09-01,上海市长宁区华阳路街道长宁路396弄79号,62258022,200042,公建民营,王瑞华
608,长宁区,华阳路街道,上海金福第四养老院,93,2018-04-01,上海市长宁支路150号,62588811,200042,民建民营,徐兵
609,长宁区,华阳路街道,上海长宁万宏悦馨养老院,271,2021-12-09,上海市长宁路250号,021-52680268,,公建民营,陈庆
610,长宁区,江苏路街道,上海金福第二养老院,163,2010-09-13,上海市愚园路1088弄110支弄22号,62125056,200050,民建民营,徐兵
611,长宁区,江苏路街道,上海长宁区逸仙第三敬老院,490,2010-08-01,上海市长宁区江苏路街道安西路651号,021-32560001,200050,民建民营,冯强
612,长宁区,天山路街道,上海金福养老院,122,2009-11-01,上海市长宁区天山路街道玉屏南路571号,62592269,200051,民建民营,徐兵
613,长宁区,天山路街道,上海长宁区逸仙天山养老院,42,2016-12-27,上海市玉屏南路373号,62458500,200051,民建民营,冯强
614,长宁区,仙霞新村街道,上海长宁万宏悦馨第一养老院,52,2020-10-15,上海市安龙路447弄4号,021-52993096,,民建民营,王晓明
615,长宁区,仙霞新村街道,上海长宁区仙霞社区逸仙敬老院,50,2004-02-01,上海市长宁区仙霞新村街道芙蓉江路100弄1号,62597018,200336,公建民营,冯强
616,长宁区,仙霞新村街道,上海长宁区逸仙第二敬老院,372,2007-08-01,上海市长宁区仙霞新村街道茅台路616号,13052076680,200336,民建民营,冯强
617,长宁区,仙霞新村街道,上海颐养第二敬老院,80,2013-12-01,上海市茅台路455弄8号,52834776,200335,民建民营,黄艳
618,长宁区,仙霞新村街道,长宁区颐养敬老院,61,1996-06-01,上海市长宁区仙霞新村街道茅台路1355弄7-8号,021-62598488,200336,民建民营,黄艳
619,长宁区,新泾镇,上海华松敬老院,118,2005-10-01,上海市长宁区新泾镇仙霞西路700弄63号,62397552,200335,民建民营,殷文明
620,长宁区,新泾镇,上海市长宁区新泾敬老院,60,2017-04-13,上海市长宁区新泾镇剑河路599弄85号,52209181,200335,公建民营,徐樱
621,长宁区,新泾镇,上海市长宁安馨敬老院,308,2008-11-01,上海市林泉路157号,51119990,200335,民建民营,黄建军
622,长宁区,新泾镇,上海市长宁安馨第三敬老院,148,2014-09-17,上海市淞虹路681号,51119980,200336,民建民营,黄建军
623,长宁区,新泾镇,上海神州敬老院,318,2008-01-01,上海市长宁区新泾镇仙霞西路601号,62386057,200335,民建民营,郑宇
624,长宁区,新泾镇,上海祥福颐养院,496,2010-08-25,上海市协和路99号,021-32569869,200335,民建民营,费鸣
625,长宁区,新泾镇,上海西郊协和颐养院,825,2013-04-01,上海市长宁区新泾镇协和路295号,021-62908787,200335,公建民营,冯强
626,长宁区,新泾镇,上海金福第三养老院,398,2016-09-01,上海市广顺路18号,021-52689677,200335,民建民营,徐兵
